{"type":"FeatureCollection","features":[{"type":"Feature","id":1,"geometry":{"type":"Polygon","coordinates":[[[-122.424,52.8691],[-122.4238,52.8708],[-122.4209,52.8698],[-122.4202,52.8693],[-122.4202,52.8691],[-122.424,52.8691]]]},"properties":{"EMRG_OAA_SYSID":1,"EVENT_NAME":"2898 Durrell Road Landslide","EVENT_NUMBER":null,"EVENT_TYPE":"Landslide","ORDER_ALERT_NAME":"Splatsin Kukpi7 & Tkwamipla","ORDER_ALERT_STATUS":"Alert","ISSUING_AGENCY":"Cariboo Regional District","PREOC_CODE":"NEA","MULTI_SOURCED_POPULATION":0,"MULTI_SOURCED_HOMES":1,"DATE_MODIFIED":1697016000000,"FEATURE_AREA_SQM":null,"FEATURE_LENGTH_M":null,"OBJECTID":1,"Shape__Area":30848.163452148438,"Shape__Length":776.9609053371412,"EVENT_START_DATE":1620907200000}},{"type":"Feature","id":10,"geometry":{"type":"MultiPolygon","coordinates":[[[[-119.364,50.3261],[-119.3642,50.3261],[-119.3642,50.3261],[-119.3642,50.3261],[-119.3642,50.3262],[-119.3642,50.3262],[-119.3642,50.3262],[-119.364,50.3262],[-119.364,50.3261]]],[[[-119.3619,50.3224],[-119.3623,50.3223],[-119.3624,50.3224],[-119.3619,50.3225],[-119.3619,50.3224]]],[[[-119.3552,50.3297],[-119.3556,50.3295],[-119.3557,50.3296],[-119.3553,50.3299],[-119.3552,50.3297]]],[[[-119.3796,50.3118],[-119.3797,50.3115],[-119.38,50.3116],[-119.3799,50.3118],[-119.3796,50.3118]]],[[[-119.3676,50.3218],[-119.3679,50.3218],[-119.3681,50.3221],[-119.3679,50.3222],[-119.3676,50.3218]]],[[[-119.3638,50.3244],[-119.3642,50.3244],[-119.3642,50.3247],[-119.3638,50.3247],[-119.3638,50.3247],[-119.3638,50.3244]]],[[[-119.359,50.3223],[-119.3593,50.3223],[-119.3596,50.3226],[-119.3594,50.3227],[-119.359,50.3223]]],[[[-119.3452,50.3338],[-119.3456,50.3335],[-119.3458,50.3337],[-119.3453,50.3339],[-119.3451,50.3338],[-119.3452,50.3338]]],[[[-119.3548,50.3293],[-119.3554,50.3291],[-119.3556,50.3292],[-119.355,50.3295],[-119.3548,50.3293]]],[[[-119.3786,50.3078],[-119.3791,50.3075],[-119.3793,50.3077],[-119.3789,50.3079],[-119.3786,50.3078]]],[[[-119.3665,50.3261],[-119.3669,50.326],[-119.3669,50.3261],[-119.367,50.3263],[-119.367,50.3263],[-119.367,50.3263],[-119.367,50.3263],[-119.3666,50.3264],[-119.3665,50.3261]]],[[[-119.3639,50.3241],[-119.3641,50.3239],[-119.3645,50.3241],[-119.3645,50.3243],[-119.3644,50.3243],[-119.3641,50.3243],[-119.3639,50.3241]]],[[[-119.3536,50.327],[-119.3538,50.3268],[-119.3543,50.3271],[-119.354,50.3273],[-119.3536,50.327]]],[[[-119.3515,50.3274],[-119.3518,50.3271],[-119.3523,50.3273],[-119.352,50.3276],[-119.3515,50.3274]]],[[[-119.3787,50.3116],[-119.3788,50.3112],[-119.3794,50.3112],[-119.3793,50.3116],[-119.3787,50.3116]]],[[[-119.3713,50.3234],[-119.3717,50.323],[-119.372,50.3233],[-119.3718,50.3236],[-119.3713,50.3234]]],[[[-119.3585,50.323],[-119.3587,50.3228],[-119.3592,50.323],[-119.3596,50.3232],[-119.3594,50.3234],[-119.3591,50.3232],[-119.3585,50.323]]],[[[-119.3683,50.3251],[-119.3687,50.3248],[-119.3691,50.325],[-119.3686,50.3253],[-119.3683,50.3251]]],[[[-119.3363,50.3435],[-119.3366,50.3433],[-119.3374,50.3436],[-119.3371,50.3438],[-119.3363,50.3435]]],[[[-119.3574,50.3249],[-119.3577,50.3246],[-119.3583,50.3249],[-119.358,50.3252],[-119.3574,50.3249]]],[[[-119.3559,50.3293],[-119.3563,50.3289],[-119.3569,50.3292],[-119.3564,50.3295],[-119.3559,50.3293]]],[[[-119.308,50.3763],[-119.3084,50.3764],[-119.3084,50.377],[-119.308,50.377],[-119.308,50.3763]]],[[[-119.3628,50.3216],[-119.3633,50.3215],[-119.3633,50.3224],[-119.363,50.3225],[-119.3628,50.3216]]],[[[-119.341,50.3401],[-119.3414,50.3398],[-119.342,50.3402],[-119.3417,50.3405],[-119.341,50.3401]]],[[[-119.367,50.3245],[-119.3677,50.3243],[-119.3679,50.3248],[-119.3673,50.3249],[-119.367,50.3245]]],[[[-119.3355,50.3444],[-119.3358,50.3441],[-119.3367,50.3445],[-119.3368,50.3445],[-119.3365,50.3447],[-119.3365,50.3448],[-119.3365,50.3448],[-119.3364,50.3448],[-119.3364,50.3448],[-119.3364,50.3448],[-119.3355,50.3444]]],[[[-119.361,50.3233],[-119.3617,50.3231],[-119.3623,50.3235],[-119.3615,50.3237],[-119.361,50.3233]]],[[[-119.3288,50.3469],[-119.3291,50.3467],[-119.3292,50.3468],[-119.3293,50.3468],[-119.3294,50.3469],[-119.3295,50.347],[-119.3295,50.347],[-119.3293,50.3471],[-119.3296,50.3474],[-119.329,50.3476],[-119.3286,50.3473],[-119.329,50.3471],[-119.329,50.3471],[-119.329,50.347],[-119.3289,50.3469],[-119.3288,50.3469]]],[[[-119.3605,50.3249],[-119.3612,50.3245],[-119.3619,50.325],[-119.3611,50.3253],[-119.3605,50.3249]]],[[[-119.308,50.3799],[-119.308,50.3798],[-119.3087,50.38],[-119.3083,50.381],[-119.308,50.3809],[-119.308,50.3799]]],[[[-119.3716,50.3173],[-119.372,50.3167],[-119.373,50.3169],[-119.3725,50.3175],[-119.3716,50.3173]]],[[[-119.3336,50.3476],[-119.3341,50.3474],[-119.3344,50.3475],[-119.3341,50.3478],[-119.3343,50.3479],[-119.3339,50.3483],[-119.3336,50.3484],[-119.3333,50.3483],[-119.3334,50.3481],[-119.3336,50.3481],[-119.3335,50.3479],[-119.3333,50.3477],[-119.3336,50.3476]]],[[[-119.3779,50.3123],[-119.3785,50.3121],[-119.3786,50.3127],[-119.3786,50.3129],[-119.3782,50.3129],[-119.3777,50.3129],[-119.3774,50.3124],[-119.3779,50.3123]]],[[[-119.3515,50.3316],[-119.3523,50.3309],[-119.3525,50.331],[-119.3527,50.3312],[-119.3528,50.3314],[-119.3526,50.3317],[-119.3518,50.332],[-119.3511,50.3318],[-119.3515,50.3316]]],[[[-119.3079,50.3781],[-119.3091,50.3781],[-119.3091,50.379],[-119.3089,50.3794],[-119.3079,50.3793],[-119.3079,50.3781]]]]},"properties":{"EMRG_OAA_SYSID":10,"EVENT_NAME":"Bradley Creek Wildfire","EVENT_NUMBER":"K41351","EVENT_TYPE":"Fire","ORDER_ALERT_NAME":"Okanagan Indian Band IR 1","ORDER_ALERT_STATUS":"Order","ISSUING_AGENCY":"Okanagan Indian Band","PREOC_CODE":"CTL","MULTI_SOURCED_POPULATION":0,"MULTI_SOURCED_HOMES":0,"DATE_MODIFIED":1789750404000,"FEATURE_AREA_SQM":null,"FEATURE_LENGTH_M":null,"OBJECTID":10,"Shape__Area":88759.50115966797,"Shape__Length":6938.912676292731,"EVENT_START_DATE":1785499200000}},{"type":"Feature","id":11,"geometry":{"type":"MultiPolygon","coordinates":[[[[-121.5033,49.9946],[-121.5033,49.9946],[-121.5036,49.995],[-121.5033,49.9953],[-121.5033,49.9946]]],[[[-121.5034,49.9955],[-121.5037,49.9952],[-121.5035,49.9956],[-121.5034,49.9958],[-121.5035,49.9959],[-121.5037,49.9963],[-121.5036,49.9964],[-121.5034,49.9965],[-121.5033,49.9965],[-121.5033,49.9956],[-121.5034,49.9955]]],[[[-121.543,50.0648],[-121.543,50.0641],[-121.5445,50.0643],[-121.5445,50.0648],[-121.543,50.0648]]],[[[-121.543,50.0627],[-121.543,50.0582],[-121.5441,50.0623],[-121.543,50.0627],[-121.543,50.0627]]],[[[-121.5005,49.9644],[-121.5006,49.9644],[-121.5005,49.9646],[-121.5005,49.9648],[-121.5006,49.9649],[-121.5008,49.9651],[-121.501,49.9652],[-121.5012,49.9654],[-121.5017,49.9655],[-121.5019,49.9656],[-121.5024,49.966],[-121.5025,49.9661],[-121.5027,49.9663],[-121.503,49.9665],[-121.5032,49.9667],[-121.5034,49.9669],[-121.5037,49.9673],[-121.5041,49.9676],[-121.5043,49.968],[-121.5048,49.9686],[-121.505,49.9689],[-121.5052,49.9693],[-121.5054,49.9697],[-121.5055,49.9699],[-121.5056,49.9701],[-121.5057,49.9706],[-121.5057,49.9708],[-121.5058,49.9709],[-121.5058,49.971],[-121.506,49.9712],[-121.5063,49.9714],[-121.5064,49.9715],[-121.5064,49.9716],[-121.5062,49.9719],[-121.5062,49.9721],[-121.5061,49.9722],[-121.506,49.9725],[-121.5059,49.9725],[-121.5058,49.9724],[-121.5057,49.9722],[-121.5052,49.9705],[-121.505,49.9698],[-121.5046,49.9691],[-121.5044,49.9686],[-121.5041,49.9683],[-121.5037,49.9679],[-121.5028,49.9669],[-121.5021,49.9664],[-121.5011,49.9657],[-121.5008,49.9655],[-121.5006,49.9653],[-121.5005,49.9651],[-121.5003,49.9649],[-121.5002,49.9646],[-121.5001,49.9645],[-121.5005,49.9644]]],[[[-121.5456,50.0576],[-121.5464,50.0575],[-121.5465,50.0579],[-121.5467,50.0585],[-121.5469,50.0591],[-121.547,50.0593],[-121.5472,50.0595],[-121.5473,50.0597],[-121.5475,50.0601],[-121.5475,50.0602],[-121.5477,50.0607],[-121.5478,50.0611],[-121.5479,50.0613],[-121.548,50.0615],[-121.5481,50.0617],[-121.5482,50.0619],[-121.5483,50.0619],[-121.5485,50.0622],[-121.5488,50.0626],[-121.5489,50.0628],[-121.549,50.063],[-121.5491,50.0638],[-121.5491,50.0648],[-121.5484,50.0648],[-121.5484,50.0644],[-121.5482,50.064],[-121.5471,50.0615],[-121.5461,50.059],[-121.5459,50.0584],[-121.5455,50.0576],[-121.5456,50.0576]]],[[[-121.5461,50.063],[-121.5461,50.063],[-121.5461,50.063],[-121.5459,50.0624],[-121.5456,50.0619],[-121.5454,50.0612],[-121.5452,50.0608],[-121.5439,50.0583],[-121.5438,50.0583],[-121.5437,50.0578],[-121.5445,50.0577],[-121.545,50.0581],[-121.5453,50.0588],[-121.5456,50.0595],[-121.5457,50.0595],[-121.5465,50.0617],[-121.5475,50.0637],[-121.5473,50.0638],[-121.5475,50.0643],[-121.5476,50.0648],[-121.5463,50.0648],[-121.5463,50.0638],[-121.5461,50.063]]],[[[-121.5059,49.9734],[-121.506,49.9733],[-121.5063,49.9736],[-121.5064,49.9738],[-121.5065,49.974],[-121.5065,49.9742],[-121.5066,49.9743],[-121.5067,49.9745],[-121.5068,49.9746],[-121.5068,49.9746],[-121.5068,49.9748],[-121.507,49.975],[-121.5071,49.9752],[-121.5076,49.9756],[-121.5077,49.9758],[-121.5078,49.976],[-121.5079,49.9763],[-121.508,49.9764],[-121.5081,49.9765],[-121.5081,49.977],[-121.508,49.9778],[-121.5082,49.9781],[-121.5082,49.9783],[-121.5083,49.9785],[-121.5083,49.9789],[-121.5083,49.9793],[-121.5065,49.9793],[-121.5061,49.9776],[-121.5059,49.9771],[-121.5059,49.9762],[-121.5059,49.9752],[-121.5069,49.9752],[-121.5062,49.9742],[-121.506,49.9738],[-121.5059,49.9735],[-121.5059,49.9734]]],[[[-121.5104,49.9898],[-121.5105,49.9898],[-121.5105,49.9899],[-121.5104,49.9901],[-121.5103,49.9903],[-121.5102,49.9904],[-121.5098,49.9909],[-121.5097,49.9912],[-121.5099,49.9916],[-121.5101,49.9919],[-121.5101,49.9922],[-121.5102,49.9924],[-121.5103,49.9928],[-121.5103,49.9932],[-121.5103,49.9933],[-121.5103,49.9936],[-121.5104,49.9937],[-121.5104,49.9938],[-121.5104,49.9938],[-121.5103,49.9938],[-121.5101,49.9938],[-121.51,49.9939],[-121.51,49.9939],[-121.5102,49.9942],[-121.5105,49.9945],[-121.5106,49.9947],[-121.5108,49.9948],[-121.5108,49.9949],[-121.5112,49.9952],[-121.5114,49.9953],[-121.5116,49.9956],[-121.5116,49.996],[-121.5117,49.9962],[-121.512,49.9965],[-121.5122,49.9967],[-121.5128,49.9972],[-121.5129,49.9973],[-121.513,49.9976],[-121.5132,49.9977],[-121.5137,49.998],[-121.5138,49.998],[-121.514,49.998],[-121.5141,49.9982],[-121.5142,49.9982],[-121.5146,49.9985],[-121.5149,49.9987],[-121.5153,49.9991],[-121.5156,49.9996],[-121.5158,49.9998],[-121.516,50.0002],[-121.5163,50.0005],[-121.5165,50.0009],[-121.5167,50.0011],[-121.5169,50.0017],[-121.517,50.0019],[-121.5171,50.0022],[-121.5172,50.0024],[-121.5173,50.0026],[-121.5175,50.0029],[-121.5175,50.0031],[-121.5177,50.0032],[-121.5178,50.0035],[-121.518,50.0037],[-121.518,50.0039],[-121.5181,50.0044],[-121.5182,50.0044],[-121.5184,50.0044],[-121.5184,50.0045],[-121.5185,50.0051],[-121.5185,50.0053],[-121.5185,50.0053],[-121.5185,50.0054],[-121.5186,50.0055],[-121.5186,50.0057],[-121.5188,50.0061],[-121.5189,50.0062],[-121.5189,50.0063],[-121.5192,50.0066],[-121.5194,50.0066],[-121.5195,50.0067],[-121.5194,50.007],[-121.5193,50.0072],[-121.5192,50.0075],[-121.5193,50.0077],[-121.5193,50.008],[-121.5193,50.0082],[-121.5194,50.0083],[-121.5195,50.0086],[-121.5196,50.0088],[-121.518,50.0088],[-121.5178,50.0086],[-121.5176,50.0084],[-121.5175,50.0082],[-121.5174,50.008],[-121.5174,50.0078],[-121.5173,50.0075],[-121.5175,50.0075],[-121.5175,50.0073],[-121.5175,50.0071],[-121.518,50.0062],[-121.518,50.0059],[-121.5181,50.0057],[-121.5181,50.0054],[-121.5179,50.0046],[-121.5179,50.0044],[-121.5178,50.0041],[-121.5176,50.0039],[-121.5174,50.0036],[-121.5142,50.0],[-121.5116,49.9973],[-121.5112,49.9969],[-121.5108,49.9963],[-121.5102,49.9954],[-121.5097,49.9946],[-121.5093,49.9939],[-121.5092,49.9935],[-121.5091,49.9933],[-121.5091,49.9928],[-121.5091,49.9924],[-121.5092,49.992],[-121.5097,49.9898],[-121.5104,49.9898]]],[[[-121.5155,50.0063],[-121.5154,50.0063],[-121.5151,50.0059],[-121.5146,50.0054],[-121.5142,50.0051],[-121.5136,50.0047],[-121.5138,50.0046],[-121.512,50.0035],[-121.5119,50.0035],[-121.5108,50.0028],[-121.5102,50.0023],[-121.5103,50.0023],[-121.5096,50.0017],[-121.5091,50.0011],[-121.5088,50.0007],[-121.5088,50.0007],[-121.5085,50.0002],[-121.5082,50.0],[-121.5077,49.9996],[-121.5058,49.9969],[-121.506,49.9963],[-121.5058,49.996],[-121.5049,49.9957],[-121.5045,49.9952],[-121.5045,49.9952],[-121.5041,49.9946],[-121.5038,49.994],[-121.5036,49.9933],[-121.5035,49.9927],[-121.5035,49.9923],[-121.5035,49.9918],[-121.5036,49.9904],[-121.5038,49.9904],[-121.5038,49.99],[-121.506,49.9897],[-121.5061,49.9897],[-121.5088,49.9898],[-121.5083,49.9919],[-121.5082,49.9926],[-121.5083,49.9933],[-121.5079,49.9933],[-121.508,49.9935],[-121.5081,49.9938],[-121.5082,49.9941],[-121.5086,49.9949],[-121.5091,49.9957],[-121.5097,49.9966],[-121.5099,49.997],[-121.5102,49.9973],[-121.5106,49.9977],[-121.5103,49.9978],[-121.5151,50.003],[-121.516,50.004],[-121.5163,50.0043],[-121.5164,50.0045],[-121.5165,50.0048],[-121.5166,50.0054],[-121.5166,50.0057],[-121.5165,50.0059],[-121.5165,50.006],[-121.5162,50.0066],[-121.5168,50.0067],[-121.5167,50.0069],[-121.5166,50.0072],[-121.5166,50.0075],[-121.5166,50.0077],[-121.5161,50.0078],[-121.516,50.0073],[-121.5159,50.007],[-121.5157,50.0066],[-121.5155,50.0063]]],[[[-121.4843,49.9355],[-121.4957,49.9355],[-121.4957,49.9428],[-121.4912,49.9428],[-121.4899,49.9428],[-121.4899,49.9428],[-121.4843,49.9428],[-121.4843,49.9355]]],[[[-121.503,50.0123],[-121.5033,49.9978],[-121.5033,49.9967],[-121.5036,49.9967],[-121.5038,49.9965],[-121.5039,49.9964],[-121.5039,49.9963],[-121.5039,49.9962],[-121.5037,49.9959],[-121.5037,49.9958],[-121.5039,49.9954],[-121.504,49.9954],[-121.5047,49.9963],[-121.5046,49.9964],[-121.5048,49.9968],[-121.5047,49.9968],[-121.5054,49.9978],[-121.5058,49.9977],[-121.5066,49.9988],[-121.5066,49.9991],[-121.507,49.9996],[-121.5078,50.0004],[-121.5088,50.0017],[-121.5089,50.0019],[-121.5093,50.0022],[-121.5097,50.0026],[-121.5098,50.0026],[-121.5105,50.0031],[-121.5139,50.0053],[-121.5144,50.0057],[-121.5148,50.0062],[-121.515,50.0072],[-121.5147,50.0073],[-121.5149,50.0083],[-121.5152,50.0088],[-121.5059,50.0087],[-121.5058,50.0141],[-121.503,50.0141],[-121.503,50.0123]]],[[[-121.477,49.9673],[-121.477,49.9647],[-121.477,49.957],[-121.478,49.9586],[-121.4778,49.9587],[-121.4784,49.9597],[-121.4786,49.9596],[-121.4788,49.96],[-121.479,49.9605],[-121.4786,49.9606],[-121.4788,49.9611],[-121.4791,49.961],[-121.4793,49.9616],[-121.4791,49.9616],[-121.4792,49.9619],[-121.4793,49.9621],[-121.4796,49.9625],[-121.4799,49.963],[-121.4802,49.9632],[-121.4803,49.9631],[-121.4807,49.9635],[-121.4813,49.9639],[-121.4818,49.9642],[-121.4819,49.9643],[-121.4824,49.9647],[-121.4825,49.9646],[-121.4836,49.9653],[-121.4836,49.9652],[-121.4839,49.9655],[-121.4843,49.9657],[-121.4863,49.9669],[-121.4903,49.9694],[-121.4908,49.9697],[-121.4911,49.97],[-121.4916,49.9704],[-121.4918,49.9708],[-121.4921,49.9712],[-121.4924,49.9717],[-121.4863,49.9728],[-121.4795,49.9742],[-121.4769,49.9741],[-121.477,49.9674],[-121.4769,49.9673],[-121.477,49.9673]]],[[[-121.4971,49.9785],[-121.4972,49.9716],[-121.4928,49.9716],[-121.4924,49.9708],[-121.4919,49.9703],[-121.4914,49.9698],[-121.4911,49.9695],[-121.4906,49.9692],[-121.4863,49.9665],[-121.4863,49.9664],[-121.4859,49.9662],[-121.486,49.9661],[-121.4861,49.9659],[-121.4862,49.9659],[-121.4863,49.966],[-121.4863,49.9657],[-121.4862,49.9657],[-121.4861,49.9657],[-121.486,49.9657],[-121.4851,49.9651],[-121.4843,49.9647],[-121.4839,49.9644],[-121.4841,49.9643],[-121.4834,49.9643],[-121.4835,49.9644],[-121.4835,49.9644],[-121.4834,49.9645],[-121.4834,49.9646],[-121.4835,49.9646],[-121.4836,49.9646],[-121.4838,49.9647],[-121.4839,49.9647],[-121.4848,49.9651],[-121.485,49.9652],[-121.4855,49.9656],[-121.4857,49.9658],[-121.4858,49.9658],[-121.4857,49.9659],[-121.4856,49.9659],[-121.4855,49.9659],[-121.4854,49.9659],[-121.4846,49.9654],[-121.4841,49.9651],[-121.4836,49.9647],[-121.4834,49.9646],[-121.4829,49.9643],[-121.4827,49.9643],[-121.4818,49.9638],[-121.4819,49.9637],[-121.4815,49.9635],[-121.4816,49.9634],[-121.481,49.9629],[-121.4809,49.9629],[-121.4807,49.9627],[-121.4804,49.9622],[-121.4807,49.9621],[-121.4807,49.962],[-121.4806,49.9618],[-121.4804,49.9614],[-121.4798,49.9615],[-121.4797,49.9612],[-121.4794,49.9604],[-121.4792,49.9599],[-121.4774,49.9567],[-121.4812,49.9567],[-121.4812,49.959],[-121.4863,49.959],[-121.4863,49.9643],[-121.4989,49.9644],[-121.499,49.965],[-121.4991,49.9654],[-121.4993,49.9657],[-121.4995,49.966],[-121.4999,49.9663],[-121.5002,49.9665],[-121.5006,49.9667],[-121.5014,49.9671],[-121.5016,49.9672],[-121.5019,49.9674],[-121.5022,49.9676],[-121.5024,49.9679],[-121.5032,49.9692],[-121.5034,49.9696],[-121.5036,49.9701],[-121.5041,49.9715],[-121.5042,49.9718],[-121.5043,49.9722],[-121.5043,49.9732],[-121.5044,49.9734],[-121.5045,49.9737],[-121.5046,49.9739],[-121.5049,49.9745],[-121.5052,49.9744],[-121.5054,49.9747],[-121.5055,49.975],[-121.5054,49.9762],[-121.5055,49.977],[-121.5056,49.9777],[-121.5061,49.9793],[-121.4972,49.9793],[-121.497,49.979],[-121.4971,49.9786],[-121.4971,49.9786],[-121.4971,49.9785]]]]},"properties":{"EMRG_OAA_SYSID":11,"EVENT_NAME":"Brunswick Wildfire","EVENT_NUMBER":"V10742","EVENT_TYPE":"Fire","ORDER_ALERT_NAME":"Boothroyd IB","ORDER_ALERT_STATUS":"Alert","ISSUING_AGENCY":"Boothroyd Indian Band","PREOC_CODE":"SWE","MULTI_SOURCED_POPULATION":42,"MULTI_SOURCED_HOMES":9,"DATE_MODIFIED":1786956961000,"FEATURE_AREA_SQM":null,"FEATURE_LENGTH_M":null,"OBJECTID":11,"Shape__Area":4925781.9845581055,"Shape__Length":41637.544936865335,"EVENT_START_DATE":1782993600000}},{"type":"Feature","id":12,"geometry":{"type":"Polygon","coordinates":[[[-120.873,50.0173],[-120.873,50.0104],[-120.8841,50.0104],[-120.8841,50.0118],[-120.8841,50.0143],[-120.9037,50.0144],[-120.9033,50.0325],[-120.8921,50.0324],[-120.8921,50.0375],[-120.892,50.0396],[-120.8864,50.0395],[-120.8695,50.0397],[-120.8693,50.0499],[-120.8552,50.0498],[-120.8552,50.0555],[-120.8158,50.055],[-120.8161,50.0335],[-120.8161,50.0334],[-120.8162,50.0334],[-120.8328,50.0334],[-120.8329,50.0226],[-120.8554,50.0227],[-120.8554,50.0173],[-120.873,50.0173]]]},"properties":{"EMRG_OAA_SYSID":12,"EVENT_NAME":"Brunswick Wildfire","EVENT_NUMBER":"V10742","EVENT_TYPE":"Fire","ORDER_ALERT_NAME":"Coldwater IR 1","ORDER_ALERT_STATUS":"Alert","ISSUING_AGENCY":"Coldwater Indian Band","PREOC_CODE":"CTL","MULTI_SOURCED_POPULATION":118,"MULTI_SOURCED_HOMES":125,"DATE_MODIFIED":1786109608000,"FEATURE_AREA_SQM":null,"FEATURE_LENGTH_M":null,"OBJECTID":12,"Shape__Area":18904976.64794922,"Shape__Length":22504.697211794875,"EVENT_START_DATE":1782993600000}},{"type":"Feature","id":13,"geometry":{"type":"MultiPolygon","coordinates":[[[[-121.4021,49.56],[-121.4039,49.5588],[-121.4045,49.5585],[-121.4051,49.5583],[-121.4054,49.5586],[-121.4058,49.5584],[-121.4062,49.5583],[-121.4065,49.5583],[-121.407,49.5582],[-121.4074,49.5581],[-121.4078,49.5581],[-121.4088,49.5581],[-121.4089,49.5578],[-121.4099,49.5578],[-121.4099,49.5581],[-121.4098,49.5583],[-121.4094,49.5586],[-121.4091,49.5587],[-121.4085,49.5588],[-121.4084,49.5588],[-121.4082,49.559],[-121.408,49.5592],[-121.408,49.5594],[-121.4082,49.5596],[-121.4083,49.5597],[-121.4084,49.5597],[-121.4084,49.5597],[-121.4084,49.5598],[-121.4084,49.5599],[-121.4082,49.56],[-121.4081,49.5602],[-121.4079,49.5604],[-121.4077,49.5605],[-121.4076,49.5606],[-121.4072,49.5607],[-121.4069,49.5608],[-121.4068,49.5608],[-121.4067,49.5608],[-121.4066,49.5607],[-121.406,49.5607],[-121.4054,49.5605],[-121.4054,49.5605],[-121.4051,49.5604],[-121.4048,49.5603],[-121.4045,49.5602],[-121.4043,49.5601],[-121.404,49.56],[-121.4038,49.5601],[-121.4037,49.5602],[-121.4035,49.5604],[-121.4032,49.5606],[-121.4023,49.5609],[-121.4016,49.5612],[-121.4008,49.5613],[-121.4,49.5615],[-121.3994,49.5619],[-121.3991,49.5621],[-121.3989,49.5622],[-121.3984,49.5623],[-121.3981,49.5623],[-121.3978,49.5623],[-121.3974,49.5625],[-121.3968,49.5627],[-121.3966,49.5629],[-121.3963,49.5631],[-121.3962,49.5632],[-121.3959,49.5636],[-121.3957,49.5638],[-121.3956,49.5639],[-121.3953,49.5642],[-121.3953,49.5644],[-121.3953,49.5646],[-121.3953,49.5646],[-121.3954,49.5648],[-121.3954,49.5649],[-121.395,49.5649],[-121.3949,49.5647],[-121.3948,49.5644],[-121.3947,49.5641],[-121.3948,49.5639],[-121.3949,49.5636],[-121.395,49.5633],[-121.3952,49.5631],[-121.3955,49.5629],[-121.3958,49.5627],[-121.3962,49.5625],[-121.4007,49.5607],[-121.4014,49.5604],[-121.4021,49.56]]],[[[-121.4049,49.5541],[-121.4102,49.5541],[-121.4101,49.5576],[-121.4082,49.5575],[-121.4074,49.5575],[-121.4067,49.5576],[-121.4061,49.5577],[-121.4055,49.5578],[-121.4049,49.558],[-121.4043,49.5583],[-121.4036,49.5587],[-121.4017,49.5599],[-121.4013,49.5601],[-121.4009,49.5603],[-121.4002,49.5606],[-121.396,49.5623],[-121.3955,49.5625],[-121.3952,49.5627],[-121.3949,49.5629],[-121.3947,49.5631],[-121.3945,49.5634],[-121.3944,49.5637],[-121.3943,49.564],[-121.3943,49.5643],[-121.3944,49.5646],[-121.3946,49.5649],[-121.3876,49.5648],[-121.3877,49.554],[-121.4049,49.5541]]]]},"properties":{"EMRG_OAA_SYSID":13,"EVENT_NAME":"Brunswick Wildfire","EVENT_NUMBER":"V10742","EVENT_TYPE":"Fire","ORDER_ALERT_NAME":"Kuthlalth 3","ORDER_ALERT_STATUS":"Alert","ISSUING_AGENCY":"Shxw'ow'hamel First Nation","PREOC_CODE":"SWE","MULTI_SOURCED_POPULATION":0,"MULTI_SOURCED_HOMES":0,"DATE_MODIFIED":1785585600000,"FEATURE_AREA_SQM":null,"FEATURE_LENGTH_M":null,"OBJECTID":13,"Shape__Area":1444829.197265625,"Shape__Length":8396.871477102239,"EVENT_START_DATE":1782993600000}},{"type":"Feature","id":14,"geometry":{"type":"MultiPolygon","coordinates":[[[[-120.981,50.0019],[-120.981,49.9995],[-120.9814,50.0006],[-120.9814,50.0013],[-120.981,50.0019]]],[[[-120.9275,49.989],[-120.9273,49.989],[-120.9273,49.989],[-120.9272,49.989],[-120.9269,49.989],[-120.9269,49.989],[-120.9268,49.989],[-120.9268,49.9889],[-120.9268,49.9889],[-120.9268,49.9889],[-120.9268,49.9888],[-120.9268,49.9888],[-120.9268,49.9888],[-120.9268,49.9888],[-120.9268,49.9887],[-120.9267,49.9887],[-120.9267,49.9887],[-120.9267,49.9887],[-120.9267,49.9886],[-120.9267,49.9886],[-120.9267,49.9886],[-120.9267,49.9885],[-120.9267,49.9885],[-120.9267,49.9885],[-120.9267,49.9884],[-120.9267,49.9884],[-120.9267,49.9884],[-120.9268,49.9884],[-120.9269,49.9884],[-120.9269,49.9884],[-120.927,49.9884],[-120.927,49.9884],[-120.9271,49.9884],[-120.9271,49.9884],[-120.9272,49.9884],[-120.9272,49.9884],[-120.9273,49.9884],[-120.9273,49.9884],[-120.9274,49.9884],[-120.9274,49.9884],[-120.9274,49.9884],[-120.9274,49.9884],[-120.9275,49.9884],[-120.9275,49.9884],[-120.9276,49.9884],[-120.9276,49.9884],[-120.9277,49.9884],[-120.9277,49.9884],[-120.9278,49.9884],[-120.9279,49.9884],[-120.9279,49.9884],[-120.928,49.9884],[-120.928,49.9884],[-120.928,49.9884],[-120.9281,49.9884],[-120.9281,49.9884],[-120.9282,49.9884],[-120.9282,49.9884],[-120.9282,49.9884],[-120.9283,49.9884],[-120.9284,49.9884],[-120.9284,49.9883],[-120.9285,49.9883],[-120.9285,49.9883],[-120.9285,49.9883],[-120.9286,49.9883],[-120.9286,49.9882],[-120.9286,49.9882],[-120.9286,49.9881],[-120.9286,49.9881],[-120.9286,49.9881],[-120.9286,49.988],[-120.9286,49.988],[-120.9287,49.988],[-120.9287,49.9879],[-120.9287,49.9879],[-120.9287,49.9879],[-120.9287,49.9878],[-120.9287,49.9878],[-120.9287,49.9878],[-120.9287,49.9877],[-120.9286,49.9877],[-120.9286,49.9877],[-120.9285,49.9876],[-120.9285,49.9876],[-120.9285,49.9876],[-120.9284,49.9876],[-120.9284,49.9876],[-120.9284,49.9875],[-120.9284,49.9875],[-120.9283,49.9875],[-120.9283,49.9874],[-120.9283,49.9874],[-120.9283,49.9874],[-120.9282,49.9874],[-120.9282,49.9873],[-120.9281,49.9873],[-120.9281,49.9873],[-120.9281,49.9873],[-120.9281,49.9873],[-120.928,49.9872],[-120.928,49.9872],[-120.928,49.9872],[-120.9279,49.9872],[-120.9279,49.9872],[-120.9279,49.9871],[-120.9278,49.9871],[-120.9278,49.9871],[-120.9278,49.987],[-120.9277,49.987],[-120.9277,49.987],[-120.9277,49.987],[-120.9276,49.9869],[-120.9276,49.9869],[-120.9275,49.9869],[-120.9275,49.9869],[-120.9275,49.9869],[-120.9275,49.9868],[-120.9274,49.9868],[-120.9274,49.9868],[-120.9273,49.9868],[-120.9273,49.9867],[-120.9273,49.9867],[-120.9272,49.9867],[-120.9272,49.9867],[-120.9272,49.9866],[-120.9271,49.9866],[-120.9271,49.9866],[-120.9271,49.9865],[-120.927,49.9865],[-120.927,49.9865],[-120.927,49.9864],[-120.927,49.9864],[-120.927,49.9864],[-120.9269,49.9863],[-120.9269,49.9863],[-120.9269,49.9863],[-120.9269,49.9862],[-120.9269,49.9862],[-120.9269,49.9862],[-120.9269,49.9861],[-120.9268,49.9861],[-120.9268,49.9861],[-120.9268,49.9861],[-120.9268,49.986],[-120.9268,49.986],[-120.9268,49.986],[-120.9268,49.9859],[-120.9268,49.9859],[-120.9268,49.9859],[-120.9268,49.9859],[-120.9268,49.9858],[-120.9268,49.9858],[-120.9268,49.9858],[-120.9268,49.9858],[-120.9268,49.9857],[-120.9268,49.9857],[-120.9268,49.9857],[-120.9268,49.9857],[-120.9268,49.9856],[-120.9269,49.9856],[-120.9269,49.9856],[-120.9269,49.9856],[-120.9269,49.9856],[-120.9269,49.9856],[-120.9269,49.9855],[-120.9269,49.9855],[-120.9269,49.9855],[-120.9269,49.9855],[-120.927,49.9854],[-120.927,49.9854],[-120.927,49.9854],[-120.927,49.9854],[-120.927,49.9854],[-120.927,49.9854],[-120.9271,49.9854],[-120.9271,49.9853],[-120.9271,49.9853],[-120.9271,49.9853],[-120.9271,49.9853],[-120.9271,49.9852],[-120.9272,49.9852],[-120.9272,49.9852],[-120.9272,49.9852],[-120.9272,49.9851],[-120.9272,49.9851],[-120.9272,49.9851],[-120.9272,49.9851],[-120.9273,49.985],[-120.9273,49.985],[-120.9273,49.985],[-120.9273,49.985],[-120.9273,49.985],[-120.9274,49.985],[-120.9274,49.9849],[-120.9274,49.9849],[-120.9274,49.9849],[-120.9274,49.9849],[-120.9274,49.9849],[-120.9274,49.9849],[-120.9274,49.9848],[-120.9274,49.9848],[-120.9275,49.9848],[-120.9275,49.9848],[-120.9277,49.9847],[-120.9278,49.9845],[-120.9279,49.9844],[-120.928,49.9841],[-120.9281,49.9839],[-120.9282,49.9839],[-120.9283,49.9839],[-120.9283,49.9839],[-120.9292,49.984],[-120.9297,49.984],[-120.9308,49.9837],[-120.931,49.9837],[-120.9318,49.9838],[-120.9329,49.9842],[-120.9329,49.9843],[-120.933,49.9847],[-120.9323,49.9853],[-120.9325,49.9858],[-120.9325,49.9859],[-120.9328,49.986],[-120.9328,49.986],[-120.9328,49.986],[-120.9342,49.9862],[-120.9357,49.9855],[-120.9376,49.9855],[-120.9385,49.9852],[-120.9387,49.9851],[-120.9394,49.9855],[-120.9405,49.9872],[-120.9405,49.9872],[-120.9404,49.9872],[-120.9376,49.9872],[-120.9307,49.9872],[-120.9307,49.9879],[-120.9307,49.989],[-120.9275,49.989],[-120.9275,49.989]]],[[[-120.9815,50.0032],[-120.9814,50.0021],[-120.9818,50.0013],[-120.9818,50.0006],[-120.9813,49.9991],[-120.9811,49.9987],[-120.9811,49.9981],[-120.9811,49.998],[-120.9811,49.9962],[-120.9786,49.9962],[-120.9783,49.9962],[-120.9783,49.996],[-120.9783,49.9908],[-120.9673,49.9908],[-120.9623,49.9908],[-120.9618,49.9908],[-120.9615,49.9908],[-120.9615,49.9906],[-120.9615,49.9896],[-120.9615,49.989],[-120.9503,49.989],[-120.9503,49.9872],[-120.9468,49.9872],[-120.9417,49.9872],[-120.9413,49.9872],[-120.941,49.9872],[-120.9398,49.9853],[-120.9387,49.9848],[-120.9385,49.9849],[-120.9375,49.9852],[-120.9356,49.9852],[-120.9341,49.9859],[-120.9335,49.9858],[-120.9334,49.9858],[-120.933,49.9857],[-120.9329,49.9857],[-120.9328,49.9855],[-120.9328,49.9854],[-120.933,49.9851],[-120.933,49.9851],[-120.9334,49.9847],[-120.9334,49.9846],[-120.9334,49.9845],[-120.9334,49.9844],[-120.9333,49.984],[-120.932,49.9835],[-120.9308,49.9834],[-120.9296,49.9837],[-120.9291,49.9838],[-120.9289,49.9837],[-120.9287,49.9837],[-120.9286,49.9837],[-120.9286,49.9836],[-120.9287,49.9836],[-120.9287,49.9836],[-120.9287,49.9836],[-120.9287,49.9836],[-120.9287,49.9836],[-120.9287,49.9836],[-120.9287,49.9836],[-120.9287,49.9835],[-120.9287,49.9835],[-120.9287,49.9835],[-120.9287,49.9835],[-120.9287,49.9835],[-120.9287,49.9834],[-120.9287,49.9834],[-120.9287,49.9834],[-120.9287,49.9834],[-120.9287,49.9834],[-120.9288,49.9833],[-120.9288,49.9833],[-120.9288,49.9833],[-120.9288,49.9833],[-120.929,49.9834],[-120.9293,49.9833],[-120.9295,49.9832],[-120.9295,49.9832],[-120.9298,49.9832],[-120.9301,49.9832],[-120.9303,49.9832],[-120.9304,49.9832],[-120.9306,49.9832],[-120.9307,49.9832],[-120.9309,49.9831],[-120.9309,49.9829],[-120.9309,49.9829],[-120.931,49.9828],[-120.931,49.9826],[-120.931,49.9826],[-120.9311,49.9826],[-120.9311,49.9826],[-120.9312,49.9826],[-120.9312,49.9826],[-120.9313,49.9826],[-120.9313,49.9825],[-120.9314,49.9825],[-120.9314,49.9825],[-120.9314,49.9825],[-120.9315,49.9825],[-120.9315,49.9825],[-120.9315,49.9825],[-120.9316,49.9825],[-120.9316,49.9825],[-120.9316,49.9825],[-120.9316,49.9825],[-120.9317,49.9824],[-120.9317,49.9824],[-120.9317,49.9824],[-120.9317,49.9824],[-120.9318,49.9824],[-120.9318,49.9824],[-120.9318,49.9824],[-120.9319,49.9824],[-120.9319,49.9824],[-120.9319,49.9824],[-120.9319,49.9824],[-120.932,49.9824],[-120.932,49.9824],[-120.932,49.9824],[-120.9321,49.9824],[-120.9321,49.9824],[-120.9321,49.9824],[-120.9322,49.9824],[-120.9322,49.9824],[-120.9322,49.9824],[-120.9323,49.9824],[-120.9323,49.9824],[-120.9323,49.9824],[-120.9324,49.9824],[-120.9324,49.9824],[-120.9325,49.9824],[-120.9325,49.9823],[-120.9325,49.9823],[-120.9326,49.9823],[-120.9326,49.9823],[-120.9327,49.9823],[-120.9327,49.9823],[-120.9327,49.9823],[-120.9327,49.9823],[-120.9328,49.9823],[-120.9328,49.9823],[-120.9328,49.9823],[-120.9328,49.9822],[-120.9329,49.9822],[-120.9329,49.9822],[-120.933,49.9822],[-120.933,49.9822],[-120.933,49.9822],[-120.933,49.9821],[-120.933,49.9821],[-120.933,49.9821],[-120.933,49.9821],[-120.933,49.982],[-120.933,49.982],[-120.933,49.982],[-120.933,49.982],[-120.933,49.9819],[-120.933,49.9819],[-120.933,49.9819],[-120.933,49.9819],[-120.9329,49.9819],[-120.9329,49.9818],[-120.9329,49.9818],[-120.9329,49.9818],[-120.9329,49.9818],[-120.9329,49.9818],[-120.9329,49.9818],[-120.9331,49.9817],[-120.9333,49.9816],[-120.9334,49.9815],[-120.9335,49.9813],[-120.9336,49.9812],[-120.9337,49.981],[-120.9337,49.9808],[-120.9336,49.9807],[-120.9336,49.9806],[-120.9335,49.9806],[-120.9335,49.9806],[-120.9335,49.9805],[-120.9335,49.9805],[-120.9335,49.9805],[-120.9336,49.9805],[-120.9336,49.9805],[-120.9336,49.9805],[-120.9336,49.9805],[-120.9337,49.9805],[-120.9337,49.9804],[-120.9337,49.9804],[-120.9338,49.9804],[-120.9338,49.9804],[-120.9338,49.9804],[-120.9338,49.9804],[-120.9339,49.9804],[-120.9339,49.9804],[-120.9339,49.9804],[-120.9339,49.9804],[-120.934,49.9804],[-120.934,49.9804],[-120.9341,49.9803],[-120.9341,49.9803],[-120.9341,49.9803],[-120.9341,49.9803],[-120.9341,49.9803],[-120.9341,49.9802],[-120.9341,49.9802],[-120.9341,49.9802],[-120.9341,49.9802],[-120.9341,49.9801],[-120.9341,49.9801],[-120.9341,49.9801],[-120.9342,49.9801],[-120.9342,49.98],[-120.9342,49.98],[-120.9341,49.98],[-120.9341,49.98],[-120.9341,49.98],[-120.9341,49.98],[-120.9341,49.9799],[-120.9341,49.9799],[-120.9341,49.9799],[-120.9341,49.9799],[-120.9341,49.9798],[-120.9341,49.9798],[-120.9341,49.9798],[-120.9341,49.9798],[-120.934,49.9798],[-120.934,49.9797],[-120.934,49.9797],[-120.934,49.9797],[-120.934,49.9797],[-120.934,49.9797],[-120.934,49.9796],[-120.934,49.9796],[-120.934,49.9796],[-120.934,49.9796],[-120.9339,49.9796],[-120.9339,49.9796],[-120.9339,49.9795],[-120.9339,49.9795],[-120.9339,49.9795],[-120.9339,49.9795],[-120.9339,49.9795],[-120.9339,49.9795],[-120.9339,49.9794],[-120.9338,49.9794],[-120.9338,49.9794],[-120.9338,49.9794],[-120.9338,49.9794],[-120.9338,49.9794],[-120.9338,49.9794],[-120.9338,49.9793],[-120.9338,49.9793],[-120.9338,49.9793],[-120.9338,49.9793],[-120.9338,49.9793],[-120.9338,49.9793],[-120.9338,49.9793],[-120.9338,49.9793],[-120.9338,49.9793],[-120.9337,49.9793],[-120.9337,49.9793],[-120.9337,49.9792],[-120.9337,49.9792],[-120.9337,49.9792],[-120.9337,49.9792],[-120.9337,49.9792],[-120.9337,49.9792],[-120.9337,49.9792],[-120.9337,49.9792],[-120.9337,49.9792],[-120.9337,49.9792],[-120.9336,49.9792],[-120.9336,49.9792],[-120.9336,49.9791],[-120.9336,49.9791],[-120.9336,49.9791],[-120.9336,49.9791],[-120.9336,49.9791],[-120.9336,49.9791],[-120.9336,49.9791],[-120.9336,49.9791],[-120.9336,49.9791],[-120.9336,49.9791],[-120.9336,49.979],[-120.9336,49.979],[-120.9336,49.979],[-120.9336,49.979],[-120.9336,49.979],[-120.9336,49.979],[-120.9335,49.979],[-120.9335,49.979],[-120.9335,49.9789],[-120.9335,49.9789],[-120.9335,49.9789],[-120.9335,49.9789],[-120.9335,49.9789],[-120.9335,49.9789],[-120.9335,49.9789],[-120.9335,49.9789],[-120.9335,49.9789],[-120.9335,49.9789],[-120.9335,49.9788],[-120.9335,49.9788],[-120.9335,49.9788],[-120.9334,49.9788],[-120.9334,49.9788],[-120.9334,49.9788],[-120.9334,49.9788],[-120.9334,49.9788],[-120.9334,49.9788],[-120.9334,49.9787],[-120.9334,49.9787],[-120.9334,49.9787],[-120.9334,49.9787],[-120.9334,49.9787],[-120.9334,49.9787],[-120.9334,49.9787],[-120.9334,49.9787],[-120.9334,49.9787],[-120.9334,49.9787],[-120.9334,49.9787],[-120.9333,49.9786],[-120.9333,49.9786],[-120.9333,49.9786],[-120.9333,49.9786],[-120.9333,49.9786],[-120.9333,49.9786],[-120.9333,49.9786],[-120.9333,49.9786],[-120.9333,49.9786],[-120.9333,49.9786],[-120.9333,49.9786],[-120.9333,49.9785],[-120.9333,49.9785],[-120.9332,49.9785],[-120.9332,49.9785],[-120.9332,49.9785],[-120.9332,49.9785],[-120.9332,49.9785],[-120.9332,49.9785],[-120.9332,49.9784],[-120.9332,49.9784],[-120.9332,49.9784],[-120.9332,49.9784],[-120.9332,49.9784],[-120.9332,49.9784],[-120.9332,49.9784],[-120.9331,49.9784],[-120.9331,49.9784],[-120.9331,49.9784],[-120.9331,49.9783],[-120.9331,49.9783],[-120.9331,49.9783],[-120.9331,49.9783],[-120.9331,49.9783],[-120.9331,49.9783],[-120.9331,49.9783],[-120.9331,49.9782],[-120.9331,49.9782],[-120.9331,49.9782],[-120.9331,49.9782],[-120.9331,49.9782],[-120.9331,49.9782],[-120.9331,49.9782],[-120.9331,49.9782],[-120.9331,49.9781],[-120.9331,49.9781],[-120.9331,49.9781],[-120.9331,49.9781],[-120.9331,49.9781],[-120.9331,49.9781],[-120.9331,49.9781],[-120.9331,49.9781],[-120.9331,49.9781],[-120.9331,49.9781],[-120.9331,49.978],[-120.9331,49.978],[-120.9331,49.978],[-120.9331,49.978],[-120.9331,49.978],[-120.9331,49.978],[-120.9331,49.978],[-120.9331,49.9779],[-120.9331,49.9779],[-120.9331,49.9779],[-120.9331,49.9779],[-120.9331,49.9779],[-120.9331,49.9779],[-120.9331,49.9779],[-120.9331,49.9778],[-120.9331,49.9778],[-120.9331,49.9778],[-120.9331,49.9778],[-120.933,49.9778],[-120.933,49.9778],[-120.933,49.9778],[-120.933,49.9778],[-120.933,49.9777],[-120.933,49.9777],[-120.933,49.9777],[-120.933,49.9777],[-120.933,49.9777],[-120.933,49.9777],[-120.933,49.9776],[-120.933,49.9776],[-120.933,49.9776],[-120.933,49.9776],[-120.933,49.9776],[-120.933,49.9776],[-120.933,49.9776],[-120.933,49.9776],[-120.933,49.9776],[-120.933,49.9775],[-120.933,49.9775],[-120.933,49.9775],[-120.933,49.9775],[-120.933,49.9775],[-120.933,49.9775],[-120.933,49.9775],[-120.933,49.9774],[-120.933,49.9774],[-120.933,49.9774],[-120.933,49.9774],[-120.933,49.9774],[-120.933,49.9774],[-120.933,49.9774],[-120.9331,49.9774],[-120.9331,49.9773],[-120.9331,49.9773],[-120.9331,49.9773],[-120.9331,49.9773],[-120.9331,49.9773],[-120.9331,49.9773],[-120.9331,49.9773],[-120.9331,49.9773],[-120.9331,49.9773],[-120.9331,49.9773],[-120.9331,49.9772],[-120.9331,49.9772],[-120.9331,49.9772],[-120.9331,49.9772],[-120.9331,49.9772],[-120.9331,49.9772],[-120.9331,49.9772],[-120.9331,49.9771],[-120.9331,49.9771],[-120.9331,49.9771],[-120.9331,49.9771],[-120.9331,49.9771],[-120.9331,49.9771],[-120.9331,49.9771],[-120.9331,49.9771],[-120.9332,49.9771],[-120.9332,49.9771],[-120.9332,49.977],[-120.9332,49.977],[-120.9332,49.977],[-120.9332,49.977],[-120.9332,49.977],[-120.9332,49.977],[-120.9332,49.977],[-120.9332,49.977],[-120.9332,49.977],[-120.9333,49.9769],[-120.9333,49.9769],[-120.9333,49.9769],[-120.9333,49.9769],[-120.9333,49.9769],[-120.9333,49.9769],[-120.9333,49.9769],[-120.9333,49.9769],[-120.9333,49.9769],[-120.9333,49.9769],[-120.9333,49.9769],[-120.9333,49.9769],[-120.9334,49.9768],[-120.9334,49.9768],[-120.9334,49.9768],[-120.9334,49.9768],[-120.9334,49.9768],[-120.9334,49.9768],[-120.9334,49.9768],[-120.9334,49.9768],[-120.9334,49.9768],[-120.9334,49.9768],[-120.9335,49.9768],[-120.9335,49.9768],[-120.9335,49.9767],[-120.9335,49.9767],[-120.9335,49.9767],[-120.9335,49.9767],[-120.9335,49.9767],[-120.9335,49.9767],[-120.9336,49.9767],[-120.9336,49.9767],[-120.9336,49.9767],[-120.9336,49.9766],[-120.9336,49.9766],[-120.9336,49.9766],[-120.9337,49.9766],[-120.9337,49.9766],[-120.9337,49.9766],[-120.9337,49.9766],[-120.9337,49.9766],[-120.9337,49.9765],[-120.9338,49.9765],[-120.9338,49.9765],[-120.9338,49.9765],[-120.9338,49.9765],[-120.9338,49.9765],[-120.9338,49.9765],[-120.9339,49.9765],[-120.9339,49.9764],[-120.9339,49.9764],[-120.9339,49.9764],[-120.9339,49.9764],[-120.9339,49.9764],[-120.9339,49.9764],[-120.9339,49.9764],[-120.9339,49.9764],[-120.934,49.9764],[-120.934,49.9764],[-120.934,49.9763],[-120.934,49.9763],[-120.934,49.9763],[-120.934,49.9763],[-120.934,49.9763],[-120.934,49.9763],[-120.934,49.9763],[-120.934,49.9763],[-120.9341,49.9763],[-120.9341,49.9763],[-120.9341,49.9763],[-120.9341,49.9763],[-120.9341,49.9762],[-120.9341,49.9762],[-120.9341,49.9762],[-120.9342,49.9762],[-120.9342,49.9762],[-120.9342,49.9762],[-120.9342,49.9762],[-120.9342,49.9762],[-120.9342,49.9762],[-120.9342,49.9762],[-120.9342,49.9762],[-120.9342,49.9762],[-120.9343,49.9762],[-120.9343,49.9762],[-120.9343,49.9761],[-120.9343,49.9761],[-120.9343,49.9761],[-120.9343,49.9761],[-120.9343,49.9761],[-120.9343,49.9761],[-120.9343,49.9761],[-120.9344,49.9761],[-120.9344,49.9761],[-120.9344,49.9761],[-120.9344,49.9761],[-120.9344,49.9761],[-120.9344,49.9761],[-120.9344,49.9761],[-120.9344,49.9761],[-120.9344,49.976],[-120.9345,49.976],[-120.9345,49.976],[-120.9345,49.976],[-120.9345,49.976],[-120.9345,49.976],[-120.9345,49.976],[-120.9345,49.976],[-120.9345,49.976],[-120.9345,49.976],[-120.9346,49.976],[-120.9346,49.976],[-120.9346,49.9759],[-120.9346,49.9759],[-120.9346,49.9759],[-120.9346,49.9759],[-120.9346,49.9759],[-120.9347,49.9759],[-120.9347,49.9759],[-120.9347,49.9759],[-120.9347,49.9759],[-120.9347,49.9759],[-120.9347,49.9759],[-120.9347,49.9759],[-120.9347,49.9758],[-120.9351,49.9757],[-120.9353,49.9756],[-120.9354,49.9755],[-120.9355,49.9755],[-120.9356,49.9754],[-120.9359,49.9754],[-120.9359,49.9754],[-120.9361,49.9753],[-120.9363,49.9752],[-120.9364,49.9751],[-120.9365,49.975],[-120.9366,49.9749],[-120.9367,49.9748],[-120.9367,49.9748],[-120.9406,49.9748],[-120.9407,49.9748],[-120.9407,49.9748],[-120.9497,49.9748],[-120.9497,49.9748],[-120.9514,49.9748],[-120.9524,49.9748],[-120.9539,49.9748],[-120.9551,49.9748],[-120.9557,49.9748],[-120.9567,49.9748],[-120.9575,49.9748],[-120.9579,49.9748],[-120.9579,49.9748],[-120.9597,49.9748],[-120.9609,49.9748],[-120.9609,49.9748],[-120.961,49.9748],[-120.961,49.9762],[-120.961,49.9777],[-120.961,49.9797],[-120.961,49.9803],[-120.961,49.9803],[-120.9779,49.9802],[-120.9779,49.9812],[-120.9779,49.9813],[-120.9779,49.9864],[-120.9779,49.9865],[-120.9779,49.9866],[-120.9779,49.9873],[-120.9779,49.9875],[-120.9779,49.9875],[-120.978,49.9875],[-120.9781,49.9875],[-120.9784,49.9875],[-120.9785,49.9875],[-120.9786,49.9875],[-120.9786,49.9875],[-120.9795,49.9875],[-120.9807,49.9875],[-120.9815,49.9875],[-120.983,49.9874],[-120.983,49.9874],[-120.9834,49.9874],[-120.9834,49.9874],[-120.9835,49.9874],[-120.9835,49.9878],[-120.9836,49.9894],[-120.9836,49.9924],[-120.9836,49.9925],[-120.9836,49.9927],[-120.9836,49.9929],[-120.9839,49.9929],[-120.9842,49.9929],[-120.9842,49.9929],[-120.9842,49.9929],[-120.9843,49.9929],[-120.9885,49.9928],[-120.9893,49.9928],[-120.9893,49.9929],[-120.9893,49.9929],[-120.9893,49.9955],[-120.9893,49.9957],[-120.9894,49.9965],[-120.9894,50.0001],[-120.9951,50.0],[-120.9951,50.0],[-120.9951,50.0],[-120.9952,50.0037],[-120.9952,50.0041],[-120.9952,50.0052],[-120.9952,50.0064],[-120.9952,50.0064],[-120.9952,50.0069],[-120.9953,50.0084],[-120.9953,50.0096],[-120.9953,50.0101],[-120.9953,50.0102],[-120.9953,50.0103],[-120.9953,50.0109],[-120.9953,50.0109],[-120.9951,50.0109],[-120.9869,50.011],[-120.9868,50.0076],[-120.9868,50.0076],[-120.9868,50.0075],[-120.9868,50.0075],[-120.9868,50.0074],[-120.9868,50.0074],[-120.9863,50.0074],[-120.9861,50.0074],[-120.986,50.0074],[-120.986,50.0074],[-120.9856,50.0074],[-120.9846,50.0074],[-120.9844,50.0071],[-120.984,50.0065],[-120.984,50.0061],[-120.984,50.0059],[-120.9839,50.0038],[-120.9828,50.0038],[-120.9822,50.0038],[-120.9823,50.0038],[-120.9823,50.0038],[-120.9814,50.0038],[-120.9815,50.0032]]]]},"properties":{"EMRG_OAA_SYSID":14,"EVENT_NAME":"Brunswick Wildfire","EVENT_NUMBER":"V10742","EVENT_TYPE":"Fire","ORDER_ALERT_NAME":"Paul's Basin - IR 2","ORDER_ALERT_STATUS":"Alert","ISSUING_AGENCY":"Coldwater Indian Band","PREOC_CODE":"CTL","MULTI_SOURCED_POPULATION":0,"MULTI_SOURCED_HOMES":12,"DATE_MODIFIED":1787997094000,"FEATURE_AREA_SQM":null,"FEATURE_LENGTH_M":null,"OBJECTID":14,"Shape__Area":6206419.545532227,"Shape__Length":21280.221371192136,"EVENT_START_DATE":1782993600000}},{"type":"Feature","id":15,"geometry":{"type":"MultiPolygon","coordinates":[[[[-121.4151,49.5233],[-121.4153,49.5233],[-121.4153,49.5235],[-121.4154,49.5238],[-121.4156,49.524],[-121.4156,49.5241],[-121.4156,49.5244],[-121.4156,49.5246],[-121.4157,49.5247],[-121.4159,49.5249],[-121.4163,49.5255],[-121.4165,49.5257],[-121.4167,49.5259],[-121.417,49.5265],[-121.4172,49.5269],[-121.4168,49.5269],[-121.4155,49.5245],[-121.4152,49.5238],[-121.4151,49.5235],[-121.4151,49.5233]]],[[[-121.4164,49.487],[-121.4168,49.487],[-121.4169,49.4872],[-121.417,49.4874],[-121.417,49.4888],[-121.4169,49.4892],[-121.4169,49.4899],[-121.4169,49.4908],[-121.4168,49.4915],[-121.4166,49.4925],[-121.4158,49.4925],[-121.4161,49.4903],[-121.4159,49.4903],[-121.4161,49.4891],[-121.4161,49.4891],[-121.4162,49.4885],[-121.4162,49.4877],[-121.4162,49.487],[-121.4164,49.487]]],[[[-121.4145,49.4998],[-121.4158,49.4998],[-121.4158,49.4998],[-121.4157,49.5004],[-121.4157,49.5013],[-121.4156,49.5017],[-121.4154,49.5024],[-121.4153,49.5029],[-121.4152,49.5034],[-121.415,49.5038],[-121.4148,49.5041],[-121.4146,49.5043],[-121.4138,49.5049],[-121.4137,49.5051],[-121.4138,49.5045],[-121.4138,49.5039],[-121.4145,49.4998]]],[[[-121.4138,49.4915],[-121.414,49.487],[-121.4158,49.487],[-121.4158,49.488],[-121.4157,49.489],[-121.4155,49.4902],[-121.4153,49.4902],[-121.415,49.4924],[-121.4138,49.4924],[-121.4138,49.4915]]],[[[-121.4124,49.5233],[-121.4146,49.5233],[-121.4148,49.5239],[-121.415,49.5245],[-121.4152,49.5249],[-121.4161,49.5264],[-121.4157,49.5265],[-121.4159,49.5269],[-121.4127,49.5269],[-121.4124,49.5233]]],[[[-121.4135,49.4998],[-121.4141,49.4998],[-121.4134,49.5038],[-121.4133,49.5044],[-121.4133,49.5051],[-121.4111,49.5051],[-121.4113,49.4997],[-121.4135,49.4998]]]]},"properties":{"EMRG_OAA_SYSID":15,"EVENT_NAME":"Brunswick Wildfire","EVENT_NUMBER":"V10742","EVENT_TYPE":"Fire","ORDER_ALERT_NAME":"Yale First Nation IRs #1,4,5,6,7,8","ORDER_ALERT_STATUS":"Alert","ISSUING_AGENCY":"Yale First Nation","PREOC_CODE":"SWE","MULTI_SOURCED_POPULATION":0,"MULTI_SOURCED_HOMES":0,"DATE_MODIFIED":1785585600000,"FEATURE_AREA_SQM":null,"FEATURE_LENGTH_M":null,"OBJECTID":15,"Shape__Area":350484.0051879883,"Shape__Length":7775.164892542308,"EVENT_START_DATE":1782993600000}},{"type":"Feature","id":16,"geometry":{"type":"Polygon","coordinates":[[[-121.6454,50.8196],[-121.6455,50.8162],[-121.6387,50.8162],[-121.6387,50.8089],[-121.6502,50.8089],[-121.6502,50.8089],[-121.6502,50.8107],[-121.6598,50.8107],[-121.6597,50.8143],[-121.6712,50.8144],[-121.671,50.8198],[-121.6824,50.82],[-121.6823,50.8252],[-121.6823,50.8285],[-121.6823,50.8288],[-121.6823,50.8289],[-121.6821,50.8289],[-121.6817,50.8289],[-121.6814,50.8288],[-121.6812,50.8288],[-121.6812,50.8288],[-121.6709,50.8288],[-121.6709,50.834],[-121.6709,50.8341],[-121.6709,50.8341],[-121.6626,50.8341],[-121.6568,50.8341],[-121.6454,50.8341],[-121.6454,50.8269],[-121.6454,50.8196]]]},"properties":{"EMRG_OAA_SYSID":16,"EVENT_NAME":"Pear Lake Wildfire","EVENT_NUMBER":"C40983","EVENT_TYPE":"Fire","ORDER_ALERT_NAME":"Pear Lake Wildfire - Ts'kw'aylaxw","ORDER_ALERT_STATUS":"Alert","ISSUING_AGENCY":"Ts'kw'aylaxw First Nation","PREOC_CODE":"CTL","MULTI_SOURCED_POPULATION":0,"MULTI_SOURCED_HOMES":0,"DATE_MODIFIED":1787394591000,"FEATURE_AREA_SQM":null,"FEATURE_LENGTH_M":null,"OBJECTID":16,"Shape__Area":5618475.797302246,"Shape__Length":11750.995543901094,"EVENT_START_DATE":1784289600000}},{"type":"Feature","id":17,"geometry":{"type":"MultiPolygon","coordinates":[[[[-121.5902,51.0917],[-121.5906,51.0916],[-121.5907,51.0919],[-121.5904,51.0921],[-121.5902,51.0917]]],[[[-121.5898,51.091],[-121.5902,51.0908],[-121.5909,51.0912],[-121.5906,51.0914],[-121.5904,51.0915],[-121.5898,51.091]]],[[[-121.5938,51.0937],[-121.5937,51.0936],[-121.5946,51.0931],[-121.5947,51.0932],[-121.5968,51.0922],[-121.5967,51.0921],[-121.5971,51.0919],[-121.5974,51.0917],[-121.5976,51.0918],[-121.5979,51.0915],[-121.5988,51.0908],[-121.5988,51.0908],[-121.5988,51.0911],[-121.5987,51.0938],[-121.6045,51.0938],[-121.6045,51.1011],[-121.6034,51.1011],[-121.5931,51.1011],[-121.593,51.0997],[-121.5931,51.0942],[-121.5931,51.0941],[-121.5934,51.0939],[-121.5938,51.0937]]]]},"properties":{"EMRG_OAA_SYSID":17,"EVENT_NAME":"Pear Lake Wildfire","EVENT_NUMBER":"C40983","EVENT_TYPE":"Fire","ORDER_ALERT_NAME":"Whispering Pines Clinton IRs 1, 3, 5, 6","ORDER_ALERT_STATUS":"Order","ISSUING_AGENCY":"Whispering Pines/Clinton","PREOC_CODE":"CTL","MULTI_SOURCED_POPULATION":0,"MULTI_SOURCED_HOMES":3,"DATE_MODIFIED":1785419035000,"FEATURE_AREA_SQM":null,"FEATURE_LENGTH_M":null,"OBJECTID":17,"Shape__Area":708389.6593017578,"Shape__Length":4079.8189044317273,"EVENT_START_DATE":1784289600000}},{"type":"Feature","id":18,"geometry":{"type":"Polygon","coordinates":[[[-121.881,50.9661],[-121.881,50.9656],[-121.881,50.9656],[-121.8812,50.9656],[-121.8814,50.9656],[-121.8817,50.9656],[-121.8817,50.9656],[-121.882,50.9656],[-121.8821,50.9656],[-121.8821,50.9656],[-121.8822,50.9656],[-121.8822,50.9657],[-121.8825,50.9657],[-121.8827,50.9657],[-121.8829,50.9658],[-121.883,50.9658],[-121.8831,50.9658],[-121.8832,50.9658],[-121.8832,50.9658],[-121.8834,50.9658],[-121.8836,50.9659],[-121.8839,50.9659],[-121.884,50.9659],[-121.884,50.966],[-121.8841,50.966],[-121.8842,50.966],[-121.8842,50.9661],[-121.8844,50.9661],[-121.8845,50.9661],[-121.8846,50.9661],[-121.8847,50.9662],[-121.8847,50.9662],[-121.8848,50.9663],[-121.8848,50.9663],[-121.8848,50.9663],[-121.8848,50.9663],[-121.8832,50.9663],[-121.8831,50.9663],[-121.881,50.9663],[-121.881,50.9663],[-121.881,50.9662],[-121.881,50.9661]]]},"properties":{"EMRG_OAA_SYSID":18,"EVENT_NAME":"Pear Lake Wildfire","EVENT_NUMBER":"C40983","EVENT_TYPE":"Fire","ORDER_ALERT_NAME":"Whispering Pines Clinton IRs 1, 3, 5, 6","ORDER_ALERT_STATUS":"Order","ISSUING_AGENCY":"Whispering Pines/Clinton","PREOC_CODE":"SWE","MULTI_SOURCED_POPULATION":0,"MULTI_SOURCED_HOMES":0,"DATE_MODIFIED":1785419032000,"FEATURE_AREA_SQM":null,"FEATURE_LENGTH_M":null,"OBJECTID":18,"Shape__Area":14727.894653320312,"Shape__Length":640.1831849836673,"EVENT_START_DATE":1784289600000}},{"type":"Feature","id":19,"geometry":{"type":"MultiPolygon","coordinates":[[[[-121.5738,50.1991],[-121.574,50.1991],[-121.574,50.2007],[-121.5738,50.2007],[-121.5736,50.1991],[-121.5738,50.1991]]],[[[-121.573,50.1991],[-121.5732,50.1991],[-121.5734,50.2009],[-121.5735,50.2014],[-121.5734,50.2017],[-121.5733,50.2027],[-121.5701,50.2027],[-121.5703,50.1991],[-121.573,50.1991]]]]},"properties":{"EMRG_OAA_SYSID":19,"EVENT_NAME":"Saw Creek Wildfire","EVENT_NUMBER":"K70597","EVENT_TYPE":"Fire","ORDER_ALERT_NAME":"Saw Creek Wildfire","ORDER_ALERT_STATUS":"Order","ISSUING_AGENCY":"Lytton First Nation","PREOC_CODE":"CTL","MULTI_SOURCED_POPULATION":12,"MULTI_SOURCED_HOMES":5,"DATE_MODIFIED":1788183724000,"FEATURE_AREA_SQM":null,"FEATURE_LENGTH_M":null,"OBJECTID":19,"Shape__Area":94348.76055908203,"Shape__Length":1647.2822148742812,"EVENT_START_DATE":1781870400000}},{"type":"Feature","id":2,"geometry":{"type":"Polygon","coordinates":[[[-120.7646,50.012],[-120.7645,50.0102],[-120.7618,50.0102],[-120.7618,50.0085],[-120.762,50.0086],[-120.7622,50.0088],[-120.7624,50.0089],[-120.7628,50.0089],[-120.7631,50.0088],[-120.7632,50.0088],[-120.7633,50.0088],[-120.7635,50.0086],[-120.7635,50.0085],[-120.7636,50.0085],[-120.7638,50.0086],[-120.7639,50.0088],[-120.7638,50.0088],[-120.7637,50.009],[-120.7638,50.0091],[-120.764,50.0093],[-120.7641,50.0093],[-120.7642,50.0093],[-120.7644,50.0093],[-120.7646,50.0092],[-120.7649,50.009],[-120.765,50.0089],[-120.765,50.0089],[-120.765,50.0089],[-120.7649,50.0088],[-120.7643,50.0087],[-120.7639,50.0086],[-120.7638,50.0085],[-120.7638,50.0084],[-120.7702,50.0083],[-120.7702,50.0092],[-120.7702,50.012],[-120.7646,50.012]]]},"properties":{"EMRG_OAA_SYSID":2,"EVENT_NAME":"Ainslie Creek Wildfire","EVENT_NUMBER":"V10755","EVENT_TYPE":"Fire","ORDER_ALERT_NAME":"Coldwater IR 3","ORDER_ALERT_STATUS":"Alert","ISSUING_AGENCY":"Coldwater Indian Band","PREOC_CODE":"CTL","MULTI_SOURCED_POPULATION":0,"MULTI_SOURCED_HOMES":0,"DATE_MODIFIED":1786536000000,"FEATURE_AREA_SQM":null,"FEATURE_LENGTH_M":null,"OBJECTID":2,"Shape__Area":194678.03912353516,"Shape__Length":2327.2724583747727,"EVENT_START_DATE":1783166400000}},{"type":"Feature","id":20,"geometry":{"type":"MultiPolygon","coordinates":[[[[-121.1473,50.3178],[-121.1473,50.3148],[-121.1332,50.3148],[-121.1332,50.3076],[-121.1445,50.3077],[-121.1445,50.3076],[-121.1446,50.3076],[-121.1446,50.3059],[-121.1587,50.3059],[-121.1585,50.3292],[-121.1473,50.3292],[-121.1473,50.3178]]],[[[-121.1584,50.3542],[-121.1584,50.3328],[-121.1976,50.3329],[-121.1977,50.3438],[-121.2034,50.3438],[-121.2034,50.3618],[-121.1584,50.3618],[-121.1584,50.3542]]],[[[-121.1224,50.273],[-121.1224,50.273],[-121.1229,50.2734],[-121.1235,50.2738],[-121.1238,50.2739],[-121.1247,50.2742],[-121.125,50.2743],[-121.1251,50.2745],[-121.1253,50.2745],[-121.126,50.2746],[-121.1266,50.2748],[-121.1274,50.2752],[-121.1286,50.2755],[-121.129,50.2756],[-121.1309,50.2754],[-121.1316,50.2752],[-121.1331,50.2747],[-121.1336,50.2747],[-121.1338,50.2746],[-121.134,50.2743],[-121.1342,50.2742],[-121.1345,50.2742],[-121.1346,50.2743],[-121.1348,50.2744],[-121.1349,50.2744],[-121.1359,50.2747],[-121.1361,50.2747],[-121.1362,50.2749],[-121.1363,50.2749],[-121.1374,50.2747],[-121.1381,50.2747],[-121.1388,50.2746],[-121.1392,50.2747],[-121.1394,50.2749],[-121.1395,50.2751],[-121.1396,50.276],[-121.1398,50.2763],[-121.14,50.2765],[-121.1402,50.2767],[-121.1412,50.2771],[-121.1423,50.2776],[-121.1431,50.2783],[-121.1436,50.2785],[-121.1438,50.2641],[-121.186,50.2644],[-121.1859,50.2716],[-121.2112,50.2717],[-121.211,50.2825],[-121.2449,50.2828],[-121.2442,50.3151],[-121.2166,50.3148],[-121.2188,50.3141],[-121.2195,50.3137],[-121.22,50.3133],[-121.2211,50.3124],[-121.2213,50.3121],[-121.2212,50.3117],[-121.221,50.3115],[-121.2205,50.3112],[-121.2198,50.311],[-121.2189,50.311],[-121.2171,50.3113],[-121.2167,50.3113],[-121.2163,50.3113],[-121.2156,50.3112],[-121.2138,50.3107],[-121.2133,50.3105],[-121.2121,50.31],[-121.2119,50.3099],[-121.2115,50.3095],[-121.211,50.3094],[-121.2102,50.309],[-121.2097,50.3088],[-121.2086,50.3085],[-121.2085,50.3083],[-121.2085,50.3079],[-121.2086,50.3077],[-121.2088,50.3074],[-121.1993,50.3073],[-121.1994,50.3038],[-121.1966,50.3037],[-121.1966,50.3019],[-121.1882,50.3019],[-121.1883,50.3001],[-121.188,50.2915],[-121.1839,50.2918],[-121.1823,50.2949],[-121.1865,50.3001],[-121.1798,50.3],[-121.1798,50.2965],[-121.1742,50.2964],[-121.1743,50.2946],[-121.163,50.2945],[-121.1631,50.2909],[-121.1547,50.2908],[-121.1548,50.2872],[-121.1378,50.287],[-121.138,50.2798],[-121.1267,50.2796],[-121.1267,50.2778],[-121.1239,50.2778],[-121.124,50.2742],[-121.1156,50.2741],[-121.1158,50.2651],[-121.1176,50.2651],[-121.1175,50.268],[-121.1207,50.2722],[-121.1213,50.2725],[-121.1219,50.2727],[-121.122,50.2727],[-121.122,50.2727],[-121.1221,50.2728],[-121.1221,50.2728],[-121.1222,50.2729],[-121.1223,50.2729],[-121.1224,50.273],[-121.1224,50.273]]]]},"properties":{"EMRG_OAA_SYSID":20,"EVENT_NAME":"Shackan Indian Band Flooding","EVENT_NUMBER":null,"EVENT_TYPE":"Flood","ORDER_ALERT_NAME":"Shackan Indian Band","ORDER_ALERT_STATUS":"Order","ISSUING_AGENCY":"Shackan Indian Band","PREOC_CODE":"CTL","MULTI_SOURCED_POPULATION":0,"MULTI_SOURCED_HOMES":0,"DATE_MODIFIED":1694887800000,"FEATURE_AREA_SQM":null,"FEATURE_LENGTH_M":null,"OBJECTID":20,"Shape__Area":38123035.80987549,"Shape__Length":56159.517800157795,"EVENT_START_DATE":1636977600000}},{"type":"Feature","id":21,"geometry":{"type":"Polygon","coordinates":[[[-121.1227,50.2701],[-121.1227,50.2702],[-121.1227,50.2703],[-121.1227,50.2703],[-121.1226,50.2704],[-121.1226,50.2705],[-121.1226,50.2706],[-121.1225,50.2706],[-121.1225,50.2707],[-121.1225,50.2708],[-121.1224,50.2708],[-121.1224,50.2709],[-121.1223,50.271],[-121.1223,50.271],[-121.1223,50.2711],[-121.1222,50.2712],[-121.1222,50.2712],[-121.1222,50.2713],[-121.1221,50.2714],[-121.1221,50.2714],[-121.122,50.2715],[-121.122,50.2716],[-121.122,50.2716],[-121.1219,50.2716],[-121.1219,50.2717],[-121.1219,50.2718],[-121.1218,50.2718],[-121.1218,50.2719],[-121.1217,50.272],[-121.1217,50.272],[-121.1217,50.2721],[-121.1217,50.2722],[-121.1217,50.2723],[-121.1217,50.2723],[-121.1217,50.2724],[-121.1218,50.2725],[-121.1218,50.2725],[-121.1219,50.2726],[-121.1219,50.2727],[-121.122,50.2727],[-121.1219,50.2727],[-121.1213,50.2725],[-121.1207,50.2722],[-121.1175,50.268],[-121.1176,50.2651],[-121.1212,50.2651],[-121.1217,50.2651],[-121.1217,50.2651],[-121.1217,50.2652],[-121.1216,50.2652],[-121.1216,50.2652],[-121.1216,50.2652],[-121.1216,50.2652],[-121.1216,50.2652],[-121.1216,50.2653],[-121.1216,50.2653],[-121.1216,50.2653],[-121.1215,50.2653],[-121.1215,50.2653],[-121.1215,50.2653],[-121.1215,50.2653],[-121.1215,50.2654],[-121.1215,50.2654],[-121.1215,50.2654],[-121.1214,50.2654],[-121.1214,50.2654],[-121.1214,50.2654],[-121.1214,50.2655],[-121.1214,50.2655],[-121.1214,50.2655],[-121.1214,50.2655],[-121.1213,50.2656],[-121.1213,50.2656],[-121.1211,50.2662],[-121.1211,50.2663],[-121.1211,50.2664],[-121.1211,50.2664],[-121.1211,50.2665],[-121.1211,50.2666],[-121.1211,50.2666],[-121.1211,50.2667],[-121.1211,50.2668],[-121.1211,50.2669],[-121.1212,50.2669],[-121.1212,50.267],[-121.1212,50.2671],[-121.1212,50.2671],[-121.1213,50.2672],[-121.1215,50.2675],[-121.1215,50.2676],[-121.1216,50.2677],[-121.1216,50.2677],[-121.1217,50.2678],[-121.1217,50.2679],[-121.1217,50.2679],[-121.1218,50.268],[-121.1218,50.2681],[-121.1219,50.2681],[-121.1219,50.2682],[-121.1219,50.2683],[-121.122,50.2683],[-121.122,50.2684],[-121.1221,50.2685],[-121.1221,50.2686],[-121.1221,50.2686],[-121.1222,50.2687],[-121.1222,50.2688],[-121.1222,50.2688],[-121.1223,50.2689],[-121.1223,50.269],[-121.1224,50.269],[-121.1224,50.2691],[-121.1224,50.2692],[-121.1225,50.2692],[-121.1225,50.2693],[-121.1226,50.2694],[-121.1226,50.2694],[-121.1226,50.2695],[-121.1227,50.2696],[-121.1227,50.2696],[-121.1227,50.2697],[-121.1227,50.2698],[-121.1228,50.2698],[-121.1228,50.2699],[-121.1228,50.27],[-121.1227,50.2701],[-121.1227,50.2701]]]},"properties":{"EMRG_OAA_SYSID":21,"EVENT_NAME":"Shackan Mudslide","EVENT_NUMBER":null,"EVENT_TYPE":"Flood","ORDER_ALERT_NAME":"Shackan IR 11 Lot 40 and 44","ORDER_ALERT_STATUS":"Order","ISSUING_AGENCY":"Shackan Indian Band","PREOC_CODE":"CTL","MULTI_SOURCED_POPULATION":0,"MULTI_SOURCED_HOMES":0,"DATE_MODIFIED":1661356800000,"FEATURE_AREA_SQM":null,"FEATURE_LENGTH_M":null,"OBJECTID":21,"Shape__Area":195876.2772216797,"Shape__Length":2137.784665885612,"EVENT_START_DATE":1661342400000}},{"type":"Feature","id":3,"geometry":{"type":"MultiPolygon","coordinates":[[[[-121.4059,49.6947],[-121.4064,49.6947],[-121.4064,49.695],[-121.4063,49.6954],[-121.4061,49.6964],[-121.4061,49.6966],[-121.4062,49.6969],[-121.4064,49.6973],[-121.4065,49.6978],[-121.4066,49.698],[-121.4066,49.6982],[-121.4067,49.6984],[-121.4067,49.6987],[-121.4069,49.6995],[-121.407,49.6997],[-121.407,49.7],[-121.4071,49.7003],[-121.4052,49.7002],[-121.4052,49.6947],[-121.4059,49.6947]]],[[[-121.4045,49.6836],[-121.4061,49.6836],[-121.4037,49.6852],[-121.4034,49.6856],[-121.403,49.6865],[-121.4023,49.6878],[-121.4024,49.6889],[-121.3999,49.6894],[-121.3998,49.6878],[-121.3993,49.6868],[-121.4009,49.6842],[-121.4004,49.6836],[-121.4045,49.6836]]],[[[-121.4024,49.6889],[-121.4076,49.689],[-121.4074,49.6894],[-121.407,49.6902],[-121.4068,49.6907],[-121.4067,49.6911],[-121.4066,49.692],[-121.4064,49.6925],[-121.4063,49.6929],[-121.4054,49.6947],[-121.4024,49.6947],[-121.4024,49.6889]]],[[[-121.4061,49.6836],[-121.4061,49.6782],[-121.413,49.6782],[-121.4128,49.6787],[-121.4128,49.6791],[-121.4128,49.6799],[-121.4128,49.6803],[-121.413,49.6803],[-121.4129,49.6806],[-121.4126,49.681],[-121.4113,49.6828],[-121.411,49.6832],[-121.4106,49.6836],[-121.4061,49.6836]]],[[[-121.393,49.6514],[-121.4013,49.6514],[-121.4008,49.6526],[-121.4007,49.6529],[-121.4007,49.6532],[-121.4007,49.6537],[-121.4007,49.6558],[-121.4008,49.6561],[-121.4009,49.6565],[-121.4019,49.6581],[-121.4018,49.6581],[-121.402,49.6584],[-121.4022,49.6587],[-121.393,49.6587],[-121.393,49.6514]]],[[[-121.3866,49.6296],[-121.3877,49.6296],[-121.3879,49.6301],[-121.3886,49.6318],[-121.3888,49.6321],[-121.3894,49.6328],[-121.3897,49.6336],[-121.3899,49.6339],[-121.3901,49.6341],[-121.3903,49.6342],[-121.391,49.6349],[-121.3913,49.6352],[-121.3926,49.6365],[-121.3928,49.6367],[-121.393,49.6368],[-121.393,49.6369],[-121.3817,49.6369],[-121.3817,49.6296],[-121.3866,49.6296]]]]},"properties":{"EMRG_OAA_SYSID":3,"EVENT_NAME":"Ainslie Creek Wildfire","EVENT_NUMBER":"V10755","EVENT_TYPE":"Fire","ORDER_ALERT_NAME":"Spuzzum FN","ORDER_ALERT_STATUS":"Alert","ISSUING_AGENCY":"Spuzzum First Nation","PREOC_CODE":"SWE","MULTI_SOURCED_POPULATION":0,"MULTI_SOURCED_HOMES":0,"DATE_MODIFIED":1788281217000,"FEATURE_AREA_SQM":null,"FEATURE_LENGTH_M":null,"OBJECTID":3,"Shape__Area":1612233.9875488281,"Shape__Length":13267.158892018157,"EVENT_START_DATE":1783166400000}},{"type":"Feature","id":4,"geometry":{"type":"Polygon","coordinates":[[[-122.2002,49.0572],[-122.2007,49.057],[-122.201,49.0574],[-122.2009,49.0574],[-122.2004,49.0575],[-122.2003,49.0575],[-122.2002,49.0572]]]},"properties":{"EMRG_OAA_SYSID":4,"EVENT_NAME":"Atmospheric River Event - Kilgard Road","EVENT_NUMBER":null,"EVENT_TYPE":"Landslide","ORDER_ALERT_NAME":"Sumas First Nation - 37005, 36901, 36909, 36919 Kilgard Road","ORDER_ALERT_STATUS":"Order","ISSUING_AGENCY":"Sumas First Nation","PREOC_CODE":"SWE","MULTI_SOURCED_POPULATION":0,"MULTI_SOURCED_HOMES":0,"DATE_MODIFIED":1765745093000,"FEATURE_AREA_SQM":null,"FEATURE_LENGTH_M":null,"OBJECTID":4,"Shape__Area":1910.4446411132812,"Shape__Length":176.65060948673099,"EVENT_START_DATE":1765368000000}},{"type":"Feature","id":5,"geometry":{"type":"MultiPolygon","coordinates":[[[[-119.7685,49.6006],[-119.7684,49.6003],[-119.7689,49.6005],[-119.7686,49.6009],[-119.7686,49.6008],[-119.7685,49.6006]]],[[[-119.7653,49.5965],[-119.7653,49.5964],[-119.7653,49.5964],[-119.7657,49.5968],[-119.7658,49.5968],[-119.7658,49.5969],[-119.766,49.597],[-119.7661,49.5971],[-119.7659,49.5972],[-119.7658,49.5973],[-119.7653,49.5965]]],[[[-119.7655,49.5963],[-119.7658,49.596],[-119.7662,49.5962],[-119.7664,49.5963],[-119.7664,49.5963],[-119.7664,49.5963],[-119.7666,49.5964],[-119.7666,49.5964],[-119.7667,49.5964],[-119.7668,49.5964],[-119.767,49.5964],[-119.7672,49.5965],[-119.767,49.5966],[-119.7664,49.597],[-119.7662,49.5968],[-119.7661,49.5967],[-119.766,49.5966],[-119.7658,49.5965],[-119.7657,49.5964],[-119.7655,49.5963]]],[[[-119.7654,49.599],[-119.7657,49.5986],[-119.7663,49.5992],[-119.7664,49.5992],[-119.7664,49.5996],[-119.7663,49.5997],[-119.7657,49.6004],[-119.7655,49.6006],[-119.7654,49.6004],[-119.7654,49.599]]],[[[-119.7691,49.6007],[-119.7693,49.6007],[-119.7693,49.6007],[-119.7708,49.6015],[-119.7708,49.6018],[-119.7701,49.6018],[-119.7697,49.6018],[-119.7694,49.6018],[-119.7693,49.6018],[-119.7692,49.6018],[-119.769,49.6018],[-119.7687,49.6012],[-119.7691,49.6007]]],[[[-119.7947,49.654],[-119.7968,49.654],[-119.7968,49.6551],[-119.7958,49.655],[-119.7958,49.6547],[-119.7955,49.6545],[-119.795,49.6545],[-119.7946,49.6543],[-119.7946,49.6541],[-119.7947,49.6541],[-119.7947,49.654]]],[[[-119.7675,49.6025],[-119.7673,49.6024],[-119.7671,49.6025],[-119.7667,49.6018],[-119.7667,49.6018],[-119.7666,49.6018],[-119.7666,49.6018],[-119.7666,49.6018],[-119.7669,49.6013],[-119.7676,49.6002],[-119.7676,49.6001],[-119.7683,49.6013],[-119.7683,49.6013],[-119.7685,49.6018],[-119.7685,49.6018],[-119.7688,49.6027],[-119.7682,49.6027],[-119.7676,49.6026],[-119.7675,49.6025]]],[[[-119.7635,49.6018],[-119.7662,49.6018],[-119.7668,49.6026],[-119.7653,49.6035],[-119.7635,49.6038],[-119.7635,49.6034],[-119.7635,49.6018]]],[[[-119.7625,49.5934],[-119.7621,49.5933],[-119.7613,49.5934],[-119.7632,49.5918],[-119.7646,49.5924],[-119.7657,49.5931],[-119.764,49.5944],[-119.7638,49.5942],[-119.7635,49.5939],[-119.7634,49.5938],[-119.7631,49.5936],[-119.7626,49.5934],[-119.7625,49.5934]]],[[[-119.7634,49.5986],[-119.7634,49.5953],[-119.7634,49.5953],[-119.7634,49.595],[-119.7634,49.595],[-119.7646,49.5956],[-119.7648,49.5961],[-119.766,49.598],[-119.7663,49.5984],[-119.7662,49.5985],[-119.7657,49.5982],[-119.7656,49.5983],[-119.7655,49.5985],[-119.7652,49.599],[-119.7652,49.6003],[-119.764,49.5998],[-119.7635,49.5995],[-119.7634,49.5995],[-119.7634,49.5986]]],[[[-119.7696,49.5981],[-119.7696,49.5981],[-119.7697,49.5981],[-119.7708,49.5983],[-119.7718,49.5986],[-119.7723,49.5988],[-119.7723,49.5993],[-119.7724,49.5997],[-119.7724,49.6001],[-119.7721,49.6007],[-119.7719,49.601],[-119.7721,49.6018],[-119.772,49.6018],[-119.7718,49.6018],[-119.7711,49.6018],[-119.771,49.6015],[-119.7695,49.6007],[-119.7689,49.6004],[-119.7687,49.6004],[-119.7683,49.6002],[-119.7679,49.5991],[-119.7696,49.5981]]],[[[-119.7635,49.609],[-119.7635,49.609],[-119.7635,49.609],[-119.7634,49.6085],[-119.7634,49.6082],[-119.7634,49.6081],[-119.7681,49.6055],[-119.7684,49.6058],[-119.7691,49.6071],[-119.7693,49.6078],[-119.7706,49.6087],[-119.7711,49.6091],[-119.7635,49.6092],[-119.7635,49.609]]],[[[-119.7835,49.6443],[-119.7835,49.6438],[-119.7842,49.6446],[-119.7851,49.6451],[-119.7878,49.6491],[-119.7883,49.6497],[-119.7892,49.6503],[-119.7895,49.6505],[-119.7894,49.6505],[-119.7885,49.6505],[-119.7871,49.6505],[-119.7836,49.6504],[-119.7836,49.6484],[-119.7835,49.6443]]],[[[-119.8042,49.6443],[-119.8059,49.6443],[-119.8059,49.6443],[-119.8058,49.6484],[-119.804,49.6484],[-119.8028,49.6484],[-119.7998,49.6499],[-119.7996,49.65],[-119.8,49.6478],[-119.8007,49.6473],[-119.8002,49.647],[-119.8007,49.6443],[-119.8042,49.6443]]],[[[-119.7891,49.6433],[-119.7945,49.6432],[-119.7945,49.6443],[-119.7945,49.6505],[-119.7926,49.6505],[-119.7925,49.6505],[-119.79,49.6505],[-119.7895,49.6503],[-119.7885,49.6496],[-119.7881,49.6491],[-119.7854,49.6449],[-119.7844,49.6445],[-119.7835,49.6433],[-119.7891,49.6433]]],[[[-119.7801,49.6143],[-119.7802,49.6127],[-119.7747,49.6127],[-119.7746,49.6103],[-119.7746,49.6101],[-119.7746,49.6096],[-119.7747,49.6092],[-119.7747,49.6091],[-119.7746,49.6091],[-119.7744,49.6088],[-119.7742,49.6085],[-119.7734,49.6082],[-119.7721,49.6075],[-119.7711,49.607],[-119.7704,49.6066],[-119.7702,49.6066],[-119.7701,49.6066],[-119.7701,49.6066],[-119.7701,49.6066],[-119.7701,49.6065],[-119.77,49.6065],[-119.77,49.6065],[-119.7699,49.6064],[-119.7699,49.6064],[-119.7698,49.6063],[-119.7698,49.6063],[-119.7698,49.6063],[-119.7697,49.6062],[-119.7697,49.6062],[-119.7697,49.6062],[-119.7696,49.6061],[-119.7696,49.6061],[-119.7696,49.606],[-119.7695,49.606],[-119.7695,49.606],[-119.7695,49.6059],[-119.7695,49.6059],[-119.7694,49.6058],[-119.7694,49.6058],[-119.7694,49.6058],[-119.7694,49.6057],[-119.7693,49.6057],[-119.7693,49.6056],[-119.7693,49.6056],[-119.7693,49.6055],[-119.7693,49.6055],[-119.7692,49.6055],[-119.7692,49.6054],[-119.7692,49.6054],[-119.7692,49.6053],[-119.7692,49.6053],[-119.7692,49.6052],[-119.7692,49.6052],[-119.7692,49.6051],[-119.7692,49.6051],[-119.7692,49.6051],[-119.7692,49.605],[-119.7692,49.605],[-119.7692,49.6049],[-119.7692,49.6049],[-119.7692,49.6048],[-119.7692,49.6048],[-119.7692,49.6048],[-119.7692,49.6048],[-119.7692,49.6047],[-119.7692,49.6047],[-119.7694,49.604],[-119.7696,49.6037],[-119.7697,49.6034],[-119.7699,49.6032],[-119.7701,49.6029],[-119.7703,49.6028],[-119.7706,49.6027],[-119.7717,49.6035],[-119.7746,49.602],[-119.7746,49.6021],[-119.7746,49.6021],[-119.7746,49.6023],[-119.7746,49.6054],[-119.7857,49.6054],[-119.7857,49.6089],[-119.7913,49.6091],[-119.7914,49.6091],[-119.7914,49.613],[-119.7936,49.6133],[-119.8021,49.6131],[-119.8024,49.6154],[-119.8024,49.6154],[-119.8024,49.6154],[-119.8023,49.6154],[-119.7952,49.6152],[-119.7952,49.6154],[-119.7951,49.6158],[-119.7951,49.6161],[-119.795,49.6227],[-119.7951,49.6262],[-119.7951,49.6287],[-119.7888,49.6288],[-119.786,49.6288],[-119.7857,49.6288],[-119.7854,49.6288],[-119.7814,49.6288],[-119.7813,49.6288],[-119.7812,49.6288],[-119.781,49.6288],[-119.7801,49.6288],[-119.7801,49.6262],[-119.7801,49.626],[-119.7801,49.6246],[-119.7801,49.6242],[-119.7801,49.624],[-119.7801,49.6221],[-119.7801,49.6202],[-119.7801,49.6199],[-119.7801,49.6196],[-119.7801,49.6192],[-119.7801,49.6182],[-119.7801,49.6173],[-119.7801,49.6166],[-119.7801,49.6156],[-119.7801,49.6148],[-119.7801,49.6143]]]]},"properties":{"EMRG_OAA_SYSID":5,"EVENT_NAME":"Bald Range Wildfire","EVENT_NUMBER":"K51490","EVENT_TYPE":"Fire","ORDER_ALERT_NAME":"Faulder, Darke Lake, Meadow Valley, Greata Ranch","ORDER_ALERT_STATUS":"Order","ISSUING_AGENCY":"Regional District of Okanagan-Similkameen","PREOC_CODE":"CTL","MULTI_SOURCED_POPULATION":279,"MULTI_SOURCED_HOMES":110,"DATE_MODIFIED":1788002727000,"FEATURE_AREA_SQM":null,"FEATURE_LENGTH_M":null,"OBJECTID":5,"Shape__Area":4294540.3908081055,"Shape__Length":26204.62187575992,"EVENT_START_DATE":1786104000000}},{"type":"Feature","id":6,"geometry":{"type":"Polygon","coordinates":[[[-119.6977,49.653],[-119.6977,49.6532],[-119.6977,49.6532],[-119.6977,49.6532],[-119.698,49.6546],[-119.6982,49.6548],[-119.6985,49.6554],[-119.6981,49.6556],[-119.6985,49.6562],[-119.6986,49.6567],[-119.6995,49.6566],[-119.6996,49.6568],[-119.7004,49.6585],[-119.7012,49.6596],[-119.7005,49.6594],[-119.7008,49.6598],[-119.7005,49.6601],[-119.7009,49.6605],[-119.6999,49.661],[-119.7001,49.6616],[-119.6961,49.662],[-119.6961,49.662],[-119.6955,49.6612],[-119.69,49.6558],[-119.6891,49.6549],[-119.6912,49.6539],[-119.6912,49.654],[-119.6922,49.6535],[-119.6933,49.653],[-119.6977,49.653]]]},"properties":{"EMRG_OAA_SYSID":6,"EVENT_NAME":"Bald Range Wildfire","EVENT_NUMBER":"K51490","EVENT_TYPE":"Fire","ORDER_ALERT_NAME":"Greata Ranch to Summerland Boundary on Highway 97","ORDER_ALERT_STATUS":"Order","ISSUING_AGENCY":"Regional District of Okanagan-Similkameen","PREOC_CODE":"CTL","MULTI_SOURCED_POPULATION":0,"MULTI_SOURCED_HOMES":2,"DATE_MODIFIED":1786894936000,"FEATURE_AREA_SQM":null,"FEATURE_LENGTH_M":null,"OBJECTID":6,"Shape__Area":501360.3518066406,"Shape__Length":3126.451557520334,"EVENT_START_DATE":1786104000000}},{"type":"Feature","id":7,"geometry":{"type":"MultiPolygon","coordinates":[[[[-119.6959,49.6039],[-119.6962,49.6038],[-119.6964,49.604],[-119.696,49.6041],[-119.6959,49.6039]]],[[[-119.6924,49.6028],[-119.6929,49.6028],[-119.6929,49.603],[-119.6924,49.603],[-119.6924,49.6028]]],[[[-119.6923,49.599],[-119.6926,49.5989],[-119.6927,49.5993],[-119.6923,49.5993],[-119.6923,49.599]]],[[[-119.6933,49.5987],[-119.6933,49.5987],[-119.6935,49.5989],[-119.6934,49.5989],[-119.6928,49.599],[-119.6928,49.5988],[-119.6929,49.5987],[-119.6933,49.5987]]],[[[-119.6918,49.6026],[-119.6922,49.6026],[-119.6922,49.6031],[-119.6921,49.6032],[-119.6918,49.6031],[-119.6918,49.6026]]],[[[-119.6926,49.6032],[-119.6935,49.6032],[-119.6935,49.6035],[-119.6926,49.6035],[-119.6925,49.6033],[-119.6925,49.6033],[-119.6925,49.6033],[-119.6925,49.6033],[-119.6925,49.6033],[-119.6925,49.6033],[-119.6925,49.6033],[-119.6925,49.6033],[-119.6925,49.6033],[-119.6925,49.6033],[-119.6925,49.6033],[-119.6925,49.6033],[-119.6925,49.6033],[-119.6925,49.6033],[-119.6925,49.6033],[-119.6926,49.6033],[-119.6926,49.6032],[-119.6926,49.6032],[-119.6926,49.6032],[-119.6926,49.6032]]],[[[-119.7036,49.6304],[-119.7038,49.6304],[-119.7039,49.6306],[-119.7039,49.6307],[-119.7026,49.6307],[-119.7026,49.6306],[-119.7026,49.6304],[-119.7028,49.6304],[-119.703,49.6304],[-119.7033,49.6304],[-119.7035,49.6304],[-119.7036,49.6304],[-119.7036,49.6304]]],[[[-119.7129,49.5971],[-119.7129,49.5971],[-119.7129,49.5972],[-119.7129,49.5987],[-119.7118,49.5986],[-119.7118,49.5972],[-119.7118,49.5971],[-119.7129,49.5971]]],[[[-119.6993,49.6237],[-119.702,49.6237],[-119.702,49.6237],[-119.702,49.6239],[-119.7021,49.624],[-119.7022,49.624],[-119.7024,49.6241],[-119.7024,49.6242],[-119.7023,49.6243],[-119.7023,49.6244],[-119.7023,49.6245],[-119.7022,49.6245],[-119.7002,49.6245],[-119.7002,49.6245],[-119.6997,49.6242],[-119.6995,49.6241],[-119.6993,49.6237]]],[[[-119.7088,49.6404],[-119.7115,49.6404],[-119.7115,49.6404],[-119.7116,49.6404],[-119.7121,49.6411],[-119.7087,49.6411],[-119.7088,49.6406],[-119.7088,49.6404]]],[[[-119.7439,49.6609],[-119.7451,49.6602],[-119.7451,49.6611],[-119.744,49.6618],[-119.7441,49.6621],[-119.7431,49.6625],[-119.7429,49.6623],[-119.7424,49.6618],[-119.7439,49.6609]]],[[[-119.7376,49.6585],[-119.7387,49.6584],[-119.7391,49.6585],[-119.7391,49.6585],[-119.7392,49.6585],[-119.7404,49.6589],[-119.7408,49.6594],[-119.7407,49.6596],[-119.7407,49.6597],[-119.7405,49.6598],[-119.7401,49.6599],[-119.7397,49.6598],[-119.7393,49.6595],[-119.7382,49.659],[-119.7378,49.6587],[-119.7377,49.6587],[-119.7377,49.6586],[-119.7376,49.6586],[-119.7376,49.6585],[-119.7376,49.6585]]],[[[-119.7457,49.6649],[-119.7486,49.6639],[-119.7486,49.6642],[-119.7472,49.6663],[-119.7468,49.6658],[-119.7457,49.6649]]],[[[-119.6962,49.609],[-119.696,49.6088],[-119.6938,49.6088],[-119.6938,49.6086],[-119.6938,49.6084],[-119.6959,49.6084],[-119.6957,49.6082],[-119.6954,49.608],[-119.6938,49.608],[-119.6938,49.6073],[-119.6971,49.6073],[-119.6972,49.6073],[-119.6972,49.6073],[-119.6972,49.6074],[-119.6972,49.6076],[-119.6972,49.6076],[-119.6972,49.6076],[-119.6972,49.6077],[-119.6972,49.6078],[-119.6973,49.6078],[-119.6977,49.6077],[-119.6981,49.6077],[-119.6982,49.6077],[-119.6982,49.6078],[-119.6982,49.6078],[-119.6982,49.6078],[-119.6982,49.6078],[-119.6982,49.6078],[-119.6983,49.6078],[-119.6983,49.6078],[-119.6983,49.6078],[-119.6983,49.6079],[-119.6984,49.6079],[-119.6987,49.608],[-119.6993,49.6088],[-119.6992,49.6088],[-119.6988,49.6088],[-119.6972,49.6088],[-119.6972,49.6088],[-119.6966,49.6088],[-119.6966,49.609],[-119.6962,49.609]]],[[[-119.7029,49.635],[-119.7065,49.6349],[-119.7066,49.635],[-119.7069,49.6353],[-119.707,49.6357],[-119.7072,49.636],[-119.7077,49.6365],[-119.7066,49.6365],[-119.7042,49.6365],[-119.703,49.6364],[-119.703,49.6357],[-119.7029,49.635]]],[[[-119.713,49.643],[-119.713,49.643],[-119.7133,49.6438],[-119.7139,49.645],[-119.7127,49.645],[-119.7087,49.645],[-119.7087,49.645],[-119.7087,49.643],[-119.7087,49.643],[-119.713,49.643]]],[[[-119.7063,49.6253],[-119.7137,49.6253],[-119.7137,49.6253],[-119.7137,49.6253],[-119.7138,49.627],[-119.7138,49.6272],[-119.7125,49.6272],[-119.7076,49.6272],[-119.7071,49.6264],[-119.707,49.6262],[-119.707,49.6262],[-119.707,49.6261],[-119.707,49.6261],[-119.7069,49.626],[-119.7069,49.626],[-119.7069,49.6259],[-119.7069,49.6258],[-119.7068,49.6258],[-119.7067,49.6257],[-119.7066,49.6257],[-119.7065,49.6256],[-119.7064,49.6255],[-119.7063,49.6254],[-119.7063,49.6253]]],[[[-119.7339,49.6561],[-119.7336,49.6559],[-119.7334,49.6558],[-119.7332,49.6557],[-119.733,49.6557],[-119.7327,49.6556],[-119.7326,49.6555],[-119.7321,49.6554],[-119.7318,49.6553],[-119.7313,49.6551],[-119.731,49.6551],[-119.7305,49.6549],[-119.7298,49.6547],[-119.7294,49.6546],[-119.7288,49.6544],[-119.7286,49.6544],[-119.7283,49.6542],[-119.7281,49.6542],[-119.7279,49.654],[-119.7278,49.6539],[-119.7277,49.6538],[-119.7276,49.6537],[-119.7275,49.6535],[-119.7275,49.6534],[-119.7274,49.6532],[-119.7273,49.653],[-119.7273,49.6529],[-119.7272,49.6528],[-119.727,49.6526],[-119.7262,49.6521],[-119.7259,49.6517],[-119.7256,49.6514],[-119.7256,49.6514],[-119.7255,49.6493],[-119.7255,49.6493],[-119.7309,49.6492],[-119.731,49.6526],[-119.737,49.6526],[-119.7371,49.6562],[-119.7402,49.6562],[-119.738,49.6575],[-119.7377,49.6576],[-119.7376,49.6577],[-119.7374,49.6578],[-119.7374,49.6578],[-119.7374,49.6577],[-119.7374,49.6577],[-119.7374,49.6577],[-119.7373,49.6576],[-119.7372,49.6576],[-119.737,49.6575],[-119.7366,49.6574],[-119.7363,49.6573],[-119.7361,49.6573],[-119.7359,49.6572],[-119.7356,49.6571],[-119.7354,49.657],[-119.735,49.6568],[-119.7347,49.6565],[-119.7344,49.6564],[-119.734,49.6562],[-119.7339,49.6561]]],[[[-119.7317,49.6671],[-119.7316,49.6599],[-119.7259,49.66],[-119.7258,49.6564],[-119.7233,49.6565],[-119.7231,49.6565],[-119.72,49.6565],[-119.7144,49.6565],[-119.7146,49.653],[-119.7223,49.6529],[-119.7228,49.6529],[-119.722,49.6525],[-119.7218,49.6524],[-119.7214,49.6522],[-119.7208,49.6521],[-119.7201,49.6517],[-119.7193,49.6514],[-119.718,49.6511],[-119.7175,49.6506],[-119.7175,49.65],[-119.7177,49.6498],[-119.7181,49.6495],[-119.7196,49.6498],[-119.7202,49.65],[-119.721,49.6501],[-119.7218,49.6505],[-119.7234,49.6508],[-119.7241,49.6508],[-119.725,49.6511],[-119.7255,49.6516],[-119.7256,49.6517],[-119.7256,49.6517],[-119.7256,49.6516],[-119.7257,49.6517],[-119.726,49.6522],[-119.7268,49.6527],[-119.7269,49.6528],[-119.7271,49.653],[-119.7273,49.6535],[-119.7275,49.6538],[-119.7276,49.654],[-119.7277,49.6541],[-119.7279,49.6542],[-119.7283,49.6544],[-119.7287,49.6545],[-119.7292,49.6547],[-119.73,49.6549],[-119.7305,49.655],[-119.7311,49.6552],[-119.7316,49.6554],[-119.7323,49.6555],[-119.7326,49.6556],[-119.7328,49.6557],[-119.733,49.6558],[-119.7333,49.6559],[-119.7335,49.656],[-119.7337,49.6561],[-119.7339,49.6563],[-119.7343,49.6565],[-119.7348,49.6568],[-119.7352,49.657],[-119.7355,49.6572],[-119.7359,49.6574],[-119.7364,49.6575],[-119.7368,49.6576],[-119.7371,49.6577],[-119.7372,49.6578],[-119.7372,49.6586],[-119.738,49.6592],[-119.7391,49.6597],[-119.7393,49.6598],[-119.7402,49.6603],[-119.7409,49.6608],[-119.7417,49.6616],[-119.7427,49.6624],[-119.743,49.6626],[-119.7431,49.6669],[-119.7317,49.6671]]]]},"properties":{"EMRG_OAA_SYSID":7,"EVENT_NAME":"Bald Range Wildfire","EVENT_NUMBER":"K51490","EVENT_TYPE":"Fire","ORDER_ALERT_NAME":"Summerland","ORDER_ALERT_STATUS":"Order","ISSUING_AGENCY":"District of Summerland","PREOC_CODE":"CTL","MULTI_SOURCED_POPULATION":95,"MULTI_SOURCED_HOMES":32,"DATE_MODIFIED":1786147799000,"FEATURE_AREA_SQM":null,"FEATURE_LENGTH_M":null,"OBJECTID":7,"Shape__Area":2282826.8944091797,"Shape__Length":21046.562292533094,"EVENT_START_DATE":1786104000000}},{"type":"Feature","id":8,"geometry":{"type":"Polygon","coordinates":[[[-123.2433,49.4744],[-123.2442,49.4744],[-123.2441,49.4747],[-123.2443,49.4749],[-123.2441,49.4751],[-123.2436,49.4754],[-123.243,49.4754],[-123.2433,49.4744]]]},"properties":{"EMRG_OAA_SYSID":8,"EVENT_NAME":"Battani Creek Landslide","EVENT_NUMBER":null,"EVENT_TYPE":"Landslide","ORDER_ALERT_NAME":"Battani Creek Landslide – 57, 59, 61 Brunswick Beach Rd; 1,14 Crystal Falls Rd; 1, 2 Goldenrod Ave","ORDER_ALERT_STATUS":"Alert","ISSUING_AGENCY":"Village of Lions Bay","PREOC_CODE":"SWE","MULTI_SOURCED_POPULATION":0,"MULTI_SOURCED_HOMES":1,"DATE_MODIFIED":1735034244000,"FEATURE_AREA_SQM":null,"FEATURE_LENGTH_M":null,"OBJECTID":8,"Shape__Area":8086.60791015625,"Shape__Length":368.2963583560254,"EVENT_START_DATE":1734264000000}},{"type":"Feature","id":9,"geometry":{"type":"Polygon","coordinates":[[[-123.2386,49.4741],[-123.2415,49.4724],[-123.2417,49.4729],[-123.2417,49.4731],[-123.2417,49.4733],[-123.2417,49.4734],[-123.2417,49.4736],[-123.2419,49.4737],[-123.2419,49.4746],[-123.2419,49.4755],[-123.242,49.4757],[-123.2429,49.4768],[-123.2363,49.4767],[-123.2363,49.474],[-123.2378,49.4741],[-123.2386,49.4741]]]},"properties":{"EMRG_OAA_SYSID":9,"EVENT_NAME":"Battani Creek Landslide","EVENT_NUMBER":null,"EVENT_TYPE":"Landslide","ORDER_ALERT_NAME":"Battani Creek Landslide – 57, 59, 61 Brunswick Beach Rd; 1,14 Crystal Falls Rd; 1, 2 Goldenrod Ave","ORDER_ALERT_STATUS":"Alert","ISSUING_AGENCY":"Village of Lions Bay","PREOC_CODE":"SWE","MULTI_SOURCED_POPULATION":17,"MULTI_SOURCED_HOMES":6,"DATE_MODIFIED":1736324294000,"FEATURE_AREA_SQM":null,"FEATURE_LENGTH_M":null,"OBJECTID":9,"Shape__Area":147563.82983398438,"Shape__Length":1734.2990478052993,"EVENT_START_DATE":1734350400000}}]}
