{"type":"FeatureCollection","features":[{"type":"Feature","id":"hotspots_last24hrs.32338191","geometry":{"type":"Point","coordinates":[-118.42822,54.96619]},"geometry_name":"geometry","properties":{"lat":54.966187,"lon":-118.42822,"rep_date":"2026-09-27T04:43:05Z","source":"Eumetsat","sensor":"SLSTR","satellite":"S3A","agency":"AB","temp":11.85,"rh":49,"ws":22.21,"wd":75,"pcp":0.011,"ffmc":67.671,"dmc":13.623,"dc":349.793,"isi":1.778,"bui":24.83,"fwi":3.19,"fuel":"C2","ros":0.767,"sfc":2.8101056,"tfc":2.8101056,"bfc":2.8101056,"hfi":647,"cfb":0,"age":7,"pcuring":59,"greenup":1,"elev":641,"ecozone":"9","sfl":18.855673,"cfl":0.22734416,"frp":5.471002,"estarea":null,"pconif":100}},{"type":"Feature","id":"hotspots_last24hrs.32339135","geometry":{"type":"Point","coordinates":[-118.44055,54.9685]},"geometry_name":"geometry","properties":{"lat":54.9685,"lon":-118.44055,"rep_date":"2026-09-27T08:54:00Z","source":"NASA_w","sensor":"VIIRS-I","satellite":"NOAA-20","agency":"AB","temp":11.34,"rh":50,"ws":22.69,"wd":75,"pcp":0,"ffmc":67.131,"dmc":13.557,"dc":349.701,"isi":1.789,"bui":24.72,"fwi":3.2,"fuel":"C2","ros":0.772,"sfc":2.785343,"tfc":2.785343,"bfc":2.785343,"hfi":645,"cfb":0,"age":9,"pcuring":59,"greenup":1,"elev":637,"ecozone":"9","sfl":16.936932,"cfl":0.2668379,"frp":3.85,"estarea":null,"pconif":100}},{"type":"Feature","id":"hotspots_last24hrs.32339137","geometry":{"type":"Point","coordinates":[-116.81061,53.20769]},"geometry_name":"geometry","properties":{"lat":53.20769,"lon":-116.81061,"rep_date":"2026-09-27T08:56:00Z","source":"NASA_w","sensor":"VIIRS-I","satellite":"NOAA-20","agency":"AB","temp":7.73,"rh":56,"ws":6.52,"wd":43,"pcp":0.009,"ffmc":61.151,"dmc":9.201,"dc":285.521,"isi":0.609,"bui":17.03,"fwi":0.5,"fuel":"C4","ros":0.15,"sfc":1.9399446,"tfc":1.9399446,"bfc":1.9399446,"hfi":87,"cfb":0,"age":9,"pcuring":52,"greenup":1,"elev":1208,"ecozone":"9","sfl":11.968263,"cfl":0,"frp":3.57,"estarea":null,"pconif":100}},{"type":"Feature","id":"hotspots_last24hrs.32339138","geometry":{"type":"Point","coordinates":[-116.8179,53.20776]},"geometry_name":"geometry","properties":{"lat":53.20776,"lon":-116.8179,"rep_date":"2026-09-27T08:56:00Z","source":"NASA_w","sensor":"VIIRS-I","satellite":"NOAA-20","agency":"AB","temp":7.73,"rh":56,"ws":6.52,"wd":43,"pcp":0.009,"ffmc":61.151,"dmc":9.201,"dc":285.521,"isi":0.609,"bui":17.03,"fwi":0.5,"fuel":"C4","ros":0.15,"sfc":1.9387637,"tfc":1.9387637,"bfc":1.9387637,"hfi":87,"cfb":0,"age":9,"pcuring":49,"greenup":1,"elev":1206,"ecozone":"9","sfl":11.868308,"cfl":0.12623328,"frp":3.57,"estarea":null,"pconif":100}},{"type":"Feature","id":"hotspots_last24hrs.32339139","geometry":{"type":"Point","coordinates":[-114.48374,51.87537]},"geometry_name":"geometry","properties":{"lat":51.87537,"lon":-114.48374,"rep_date":"2026-09-27T10:36:00Z","source":"NASA_w","sensor":"VIIRS-I","satellite":"NOAA-20","agency":"AB","temp":10.75,"rh":53,"ws":6.05,"wd":178,"pcp":0.001,"ffmc":81.623,"dmc":38.825,"dc":501.198,"isi":1.848,"bui":65.05,"fwi":6.69,"fuel":"D1","ros":0.2,"sfc":0.9949094,"tfc":0.9949094,"bfc":1.044,"hfi":60,"cfb":0,"age":8,"pcuring":59,"greenup":0,"elev":1088,"ecozone":"9","sfl":1,"cfl":0,"frp":1.04,"estarea":null,"pconif":0}},{"type":"Feature","id":"hotspots_last24hrs.32339141","geometry":{"type":"Point","coordinates":[-115.71233,52.93372]},"geometry_name":"geometry","properties":{"lat":52.93372,"lon":-115.71233,"rep_date":"2026-09-27T10:36:00Z","source":"NASA_w","sensor":"VIIRS-I","satellite":"NOAA-20","agency":"AB","temp":10.19,"rh":54,"ws":7.02,"wd":34,"pcp":0.005,"ffmc":62.276,"dmc":8.809,"dc":174.189,"isi":0.664,"bui":15.64,"fwi":0.52,"fuel":"low_veg","ros":0,"sfc":1.78028,"tfc":1.78028,"bfc":1.78028,"hfi":0,"cfb":0,"age":8,"pcuring":56,"greenup":0,"elev":1031,"ecozone":"9","sfl":10.765819,"cfl":1.0909687,"frp":0.54,"estarea":null,"pconif":0}},{"type":"Feature","id":"hotspots_last24hrs.32339142","geometry":{"type":"Point","coordinates":[-116.80592,53.20853]},"geometry_name":"geometry","properties":{"lat":53.20853,"lon":-116.80592,"rep_date":"2026-09-27T10:36:00Z","source":"NASA_w","sensor":"VIIRS-I","satellite":"NOAA-20","agency":"AB","temp":7.73,"rh":56,"ws":6.52,"wd":43,"pcp":0.009,"ffmc":61.151,"dmc":9.201,"dc":285.521,"isi":0.609,"bui":17.03,"fwi":0.5,"fuel":"C4","ros":0.15,"sfc":1.9399446,"tfc":1.9399446,"bfc":1.9399446,"hfi":87,"cfb":0,"age":8,"pcuring":52,"greenup":1,"elev":1208,"ecozone":"9","sfl":11.968263,"cfl":0.20717777,"frp":7.05,"estarea":null,"pconif":100}},{"type":"Feature","id":"hotspots_last24hrs.32339143","geometry":{"type":"Point","coordinates":[-118.42958,54.96993]},"geometry_name":"geometry","properties":{"lat":54.96993,"lon":-118.42958,"rep_date":"2026-09-27T10:36:00Z","source":"NASA_w","sensor":"VIIRS-I","satellite":"NOAA-20","agency":"AB","temp":11.34,"rh":50,"ws":22.69,"wd":75,"pcp":0,"ffmc":67.131,"dmc":13.557,"dc":349.701,"isi":1.789,"bui":24.72,"fwi":3.2,"fuel":"C2","ros":0.772,"sfc":2.776862,"tfc":2.776862,"bfc":2.776862,"hfi":643,"cfb":0,"age":8,"pcuring":59,"greenup":1,"elev":637,"ecozone":"9","sfl":16.036686,"cfl":0.29072937,"frp":4.96,"estarea":null,"pconif":100}},{"type":"Feature","id":"hotspots_last24hrs.32339158","geometry":{"type":"Point","coordinates":[-116.57013,53.57691]},"geometry_name":"geometry","properties":{"lat":53.57691,"lon":-116.57013,"rep_date":"2026-09-27T09:41:00Z","source":"NASA_w","sensor":"VIIRS-I","satellite":"NOAA-21","agency":"AB","temp":9.57,"rh":49,"ws":8.5,"wd":50,"pcp":0,"ffmc":62.38,"dmc":8.934,"dc":277.802,"isi":0.719,"bui":16.54,"fwi":0.58,"fuel":"farm","ros":0.047,"sfc":1.8638887,"tfc":1.8638887,"bfc":1.8638887,"hfi":26,"cfb":0,"age":8,"pcuring":48,"greenup":1,"elev":975,"ecozone":"9","sfl":10.190421,"cfl":0.19554545,"frp":0.63,"estarea":null,"pconif":0}},{"type":"Feature","id":"hotspots_last24hrs.32339159","geometry":{"type":"Point","coordinates":[-116.80659,53.20683]},"geometry_name":"geometry","properties":{"lat":53.20683,"lon":-116.80659,"rep_date":"2026-09-27T09:41:00Z","source":"NASA_w","sensor":"VIIRS-I","satellite":"NOAA-21","agency":"AB","temp":7.91,"rh":55,"ws":6.46,"wd":43,"pcp":0.009,"ffmc":61.746,"dmc":9.498,"dc":289.335,"isi":0.627,"bui":17.55,"fwi":0.52,"fuel":"C3","ros":0.001,"sfc":2.012873,"tfc":2.012873,"bfc":2.012873,"hfi":1,"cfb":0,"age":8,"pcuring":52,"greenup":1,"elev":1195,"ecozone":"9","sfl":13.90361,"cfl":0.20717777,"frp":12.27,"estarea":null,"pconif":100}},{"type":"Feature","id":"hotspots_last24hrs.32339160","geometry":{"type":"Point","coordinates":[-119.26849,55.10447]},"geometry_name":"geometry","properties":{"lat":55.10447,"lon":-119.26849,"rep_date":"2026-09-27T09:41:00Z","source":"NASA_w","sensor":"VIIRS-I","satellite":"NOAA-21","agency":"AB","temp":11.05,"rh":51,"ws":24.24,"wd":76,"pcp":0.026,"ffmc":65.863,"dmc":17.237,"dc":434.592,"isi":1.85,"bui":31.36,"fwi":3.99,"fuel":"farm","ros":0.542,"sfc":0.921575,"tfc":0.921575,"bfc":0.921575,"hfi":150,"cfb":0,"age":8,"pcuring":60,"greenup":1,"elev":690,"ecozone":"9","sfl":1,"cfl":0,"frp":6.24,"estarea":null,"pconif":0}},{"type":"Feature","id":"hotspots_last24hrs.32339161","geometry":{"type":"Point","coordinates":[-118.43183,54.96901]},"geometry_name":"geometry","properties":{"lat":54.96901,"lon":-118.43183,"rep_date":"2026-09-27T09:41:00Z","source":"NASA_w","sensor":"VIIRS-I","satellite":"NOAA-21","agency":"AB","temp":11.34,"rh":50,"ws":22.69,"wd":75,"pcp":0,"ffmc":67.131,"dmc":13.557,"dc":349.701,"isi":1.789,"bui":24.72,"fwi":3.2,"fuel":"C2","ros":0.772,"sfc":2.776862,"tfc":2.776862,"bfc":2.776862,"hfi":643,"cfb":0,"age":8,"pcuring":59,"greenup":1,"elev":637,"ecozone":"9","sfl":16.036686,"cfl":0.29072937,"frp":6.99,"estarea":null,"pconif":100}},{"type":"Feature","id":"hotspots_last24hrs.32339187","geometry":{"type":"Point","coordinates":[-117.09201,49.56447]},"geometry_name":"geometry","properties":{"lat":49.56447,"lon":-117.09201,"rep_date":"2026-09-27T09:41:00Z","source":"NASA_w","sensor":"VIIRS-I","satellite":"NOAA-21","agency":"BC","temp":5.05,"rh":83,"ws":0.98,"wd":48,"pcp":0.002,"ffmc":31.902,"dmc":5.165,"dc":447.721,"isi":0.006,"bui":10.04,"fwi":0,"fuel":"C3","ros":0,"sfc":1.1864574,"tfc":1.1864574,"bfc":1.1864574,"hfi":0,"cfb":0,"age":8,"pcuring":44,"greenup":1,"elev":1666,"ecozone":"14","sfl":12.416115,"cfl":3.111419,"frp":0.52,"estarea":null,"pconif":100}},{"type":"Feature","id":"hotspots_last24hrs.32339225","geometry":{"type":"Point","coordinates":[-120.8608,48.35946]},"geometry_name":"geometry","properties":{"lat":48.35946,"lon":-120.8608,"rep_date":"2026-09-27T10:38:00Z","source":"NASA_w","sensor":"VIIRS-I","satellite":"NOAA-20","agency":"WA","temp":10.1,"rh":47,"ws":10.4,"wd":251,"pcp":2.6,"ffmc":62.3,"dmc":45.3,"dc":721,"isi":0.8,"bui":78.4,"fwi":3.2,"fuel":"C3","ros":0,"sfc":6.7476387,"tfc":6.7476387,"bfc":6.7476387,"hfi":0,"cfb":0,"age":7,"pcuring":null,"greenup":null,"elev":966,"ecozone":"6","sfl":12.409358,"cfl":3.206144,"frp":1.02,"estarea":null,"pconif":100}},{"type":"Feature","id":"hotspots_last24hrs.32339375","geometry":{"type":"Point","coordinates":[-117.08825,49.56793]},"geometry_name":"geometry","properties":{"lat":49.56793,"lon":-117.08825,"rep_date":"2026-09-27T10:38:00Z","source":"NASA_w","sensor":"VIIRS-I","satellite":"NOAA-20","agency":"BC","temp":5.05,"rh":83,"ws":0.98,"wd":48,"pcp":0.002,"ffmc":31.902,"dmc":5.165,"dc":447.721,"isi":0.006,"bui":10.04,"fwi":0,"fuel":"C3","ros":0,"sfc":1.1874363,"tfc":1.1874363,"bfc":1.1874363,"hfi":0,"cfb":0,"age":7,"pcuring":48,"greenup":0,"elev":1666,"ecozone":"14","sfl":12.755058,"cfl":3.366799,"frp":1.36,"estarea":null,"pconif":100}},{"type":"Feature","id":"hotspots_last24hrs.32339641","geometry":{"type":"Point","coordinates":[-116.80055,53.20833]},"geometry_name":"geometry","properties":{"lat":53.20833,"lon":-116.80055,"rep_date":"2026-09-27T11:19:00Z","source":"NASA_w","sensor":"VIIRS-I","satellite":"NOAA-21","agency":"AB","temp":8.12,"rh":55,"ws":6.52,"wd":43,"pcp":0.009,"ffmc":62.146,"dmc":9.49,"dc":286.22,"isi":0.643,"bui":17.53,"fwi":0.54,"fuel":"C3","ros":0.001,"sfc":1.9922699,"tfc":1.9922699,"bfc":1.9922699,"hfi":1,"cfb":0,"age":10,"pcuring":50,"greenup":1,"elev":1208,"ecozone":"9","sfl":12,"cfl":0.12506191,"frp":6.57,"estarea":null,"pconif":100}},{"type":"Feature","id":"hotspots_last24hrs.32339642","geometry":{"type":"Point","coordinates":[-118.42951,54.9666]},"geometry_name":"geometry","properties":{"lat":54.9666,"lon":-118.42951,"rep_date":"2026-09-27T11:19:00Z","source":"NASA_w","sensor":"VIIRS-I","satellite":"NOAA-21","agency":"AB","temp":11.34,"rh":50,"ws":22.69,"wd":75,"pcp":0,"ffmc":67.131,"dmc":13.557,"dc":349.701,"isi":1.789,"bui":24.72,"fwi":3.2,"fuel":"C2","ros":0.772,"sfc":2.7986298,"tfc":2.7986298,"bfc":2.7986298,"hfi":648,"cfb":0,"age":10,"pcuring":59,"greenup":1,"elev":641,"ecozone":"9","sfl":18.855673,"cfl":0.22734416,"frp":4.34,"estarea":null,"pconif":100}},{"type":"Feature","id":"hotspots_last24hrs.32339818","geometry":{"type":"Point","coordinates":[-118.43496,54.96842]},"geometry_name":"geometry","properties":{"lat":54.96842,"lon":-118.43496,"rep_date":"2026-09-27T11:19:00Z","source":"NASA_w","sensor":"VIIRS-I","satellite":"NOAA-21","agency":"AB","temp":11.34,"rh":50,"ws":22.69,"wd":75,"pcp":0,"ffmc":67.131,"dmc":13.557,"dc":349.701,"isi":1.789,"bui":24.72,"fwi":3.2,"fuel":"C2","ros":0.772,"sfc":2.785343,"tfc":2.785343,"bfc":2.785343,"hfi":645,"cfb":0,"age":10,"pcuring":59,"greenup":1,"elev":637,"ecozone":"9","sfl":16.936932,"cfl":0.26854804,"frp":3.52,"estarea":null,"pconif":100}},{"type":"Feature","id":"hotspots_last24hrs.32340201","geometry":{"type":"Point","coordinates":[-124.49419,54.09374]},"geometry_name":"geometry","properties":{"lat":54.093742,"lon":-124.494194,"rep_date":"2026-09-27T18:30:50Z","source":"Eumetsat","sensor":"SLSTR","satellite":"S3A","agency":"BC","temp":13,"rh":56,"ws":8.49,"wd":11,"pcp":1.528,"ffmc":63.95,"dmc":29.421,"dc":672.714,"isi":0.774,"bui":53.04,"fwi":2.09,"fuel":"D2","ros":0,"sfc":5.2977076,"tfc":5.2977076,"bfc":5.2977076,"hfi":0,"cfb":0,"age":6,"pcuring":60,"greenup":1,"elev":668,"ecozone":"14","sfl":14.78,"cfl":0.4371029,"frp":21.12442,"estarea":null,"pconif":0}},{"type":"Feature","id":"hotspots_last24hrs.32340246","geometry":{"type":"Point","coordinates":[-124.49044,54.09008]},"geometry_name":"geometry","properties":{"lat":54.09008,"lon":-124.49044,"rep_date":"2026-09-27T18:00:00Z","source":"NASA_z","sensor":"MODIS","satellite":"Terra","agency":"BC","temp":13,"rh":56,"ws":8.49,"wd":11,"pcp":1.528,"ffmc":63.95,"dmc":29.421,"dc":672.714,"isi":0.774,"bui":53.04,"fwi":2.09,"fuel":"D2","ros":0,"sfc":5.0492554,"tfc":5.0492554,"bfc":5.0492554,"hfi":0,"cfb":0,"age":6,"pcuring":60,"greenup":1,"elev":668,"ecozone":"14","sfl":11.78,"cfl":0,"frp":15.23,"estarea":null,"pconif":0}},{"type":"Feature","id":"hotspots_last24hrs.32340261","geometry":{"type":"Point","coordinates":[-118.43014,54.96661]},"geometry_name":"geometry","properties":{"lat":54.96661,"lon":-118.43014,"rep_date":"2026-09-27T21:10:00Z","source":"NASA_w","sensor":"VIIRS-I","satellite":"NOAA-21","agency":"AB","temp":12.54,"rh":45,"ws":31.06,"wd":76,"pcp":0.146,"ffmc":72.545,"dmc":13.943,"dc":350.091,"isi":3.269,"bui":25.36,"fwi":6.18,"fuel":"C2","ros":1.881,"sfc":2.8652828,"tfc":2.8652828,"bfc":2.8652828,"hfi":1617,"cfb":0,"age":3,"pcuring":59,"greenup":1,"elev":641,"ecozone":"9","sfl":18.855673,"cfl":0.22734416,"frp":4.13,"estarea":null,"pconif":100}},{"type":"Feature","id":"hotspots_last24hrs.32340367","geometry":{"type":"Point","coordinates":[-117.29475,57.2371]},"geometry_name":"geometry","properties":{"lat":57.2371,"lon":-117.29475,"rep_date":"2026-09-27T21:10:00Z","source":"NASA_w","sensor":"VIIRS-I","satellite":"NOAA-21","agency":"AB","temp":12.89,"rh":52,"ws":24.46,"wd":68,"pcp":0.054,"ffmc":69.389,"dmc":6.966,"dc":353.567,"isi":2.104,"bui":13.28,"fwi":2.39,"fuel":"O1a","ros":0.375,"sfc":1.5419419,"tfc":1.5419419,"bfc":1.5419419,"hfi":173,"cfb":0,"age":3,"pcuring":49,"greenup":0,"elev":436,"ecozone":"9","sfl":12,"cfl":0.28098163,"frp":5.17,"estarea":null,"pconif":0}},{"type":"Feature","id":"hotspots_last24hrs.32340429","geometry":{"type":"Point","coordinates":[-124.48346,54.0927]},"geometry_name":"geometry","properties":{"lat":54.0927,"lon":-124.48346,"rep_date":"2026-09-27T20:25:00Z","source":"NASA_w","sensor":"VIIRS-I","satellite":"NOAA-20","agency":"BC","temp":13.05,"rh":56,"ws":8.42,"wd":11,"pcp":1.558,"ffmc":63.958,"dmc":28.93,"dc":668.563,"isi":0.772,"bui":52.21,"fwi":2.04,"fuel":"O1a","ros":0.193,"sfc":5.082605,"tfc":5.082605,"bfc":5.082605,"hfi":294,"cfb":0,"age":4,"pcuring":60,"greenup":0,"elev":667,"ecozone":"14","sfl":12.76737,"cfl":0.2022804,"frp":4.19,"estarea":null,"pconif":0}},{"type":"Feature","id":"hotspots_last24hrs.32340790","geometry":{"type":"Point","coordinates":[-124.46743,54.08904]},"geometry_name":"geometry","properties":{"lat":54.089035,"lon":-124.46743,"rep_date":"2026-09-27T18:30:50Z","source":"Eumetsat","sensor":"SLSTR","satellite":"S3A","agency":"BC","temp":13.05,"rh":56,"ws":8.42,"wd":11,"pcp":1.558,"ffmc":63.958,"dmc":28.93,"dc":668.563,"isi":0.772,"bui":52.21,"fwi":2.04,"fuel":"O1a","ros":0.193,"sfc":1.6868553,"tfc":1.6868553,"bfc":1.6868553,"hfi":98,"cfb":0,"age":6,"pcuring":61,"greenup":1,"elev":664,"ecozone":"14","sfl":1.78,"cfl":0.62028164,"frp":10.581782,"estarea":null,"pconif":0}},{"type":"Feature","id":"hotspots_last24hrs.32340791","geometry":{"type":"Point","coordinates":[-124.48569,54.0988]},"geometry_name":"geometry","properties":{"lat":54.098804,"lon":-124.48569,"rep_date":"2026-09-27T18:30:50Z","source":"Eumetsat","sensor":"SLSTR","satellite":"S3A","agency":"BC","temp":13.05,"rh":56,"ws":8.42,"wd":11,"pcp":1.558,"ffmc":63.958,"dmc":28.93,"dc":668.563,"isi":0.772,"bui":52.21,"fwi":2.04,"fuel":"O1a","ros":0.193,"sfc":4.9900436,"tfc":4.9900436,"bfc":4.9900436,"hfi":289,"cfb":0,"age":6,"pcuring":62,"greenup":1,"elev":667,"ecozone":"14","sfl":11.78,"cfl":0.3303585,"frp":20.540024,"estarea":null,"pconif":0}}]}
